[{"id":31174,"zip":1425,"lat":14.75202,"lng":121.07224,"region":"National Capital Region (NCR)","city":"Caloocan City","brgy":"Amparo"},{"id":31175,"zip":1401,"lat":14.66953,"lng":121.01201,"region":"National Capital Region (NCR)","city":"Caloocan City","brgy":"Baesa"},{"id":31176,"zip":1428,"lat":14.78453,"lng":121.03846,"region":"National Capital Region (NCR)","city":"Caloocan City","brgy":"Bagong Silang"},{"id":31177,"zip":1421,"lat":14.77946,"lng":121.04946,"region":"National Capital Region (NCR)","city":"Caloocan City","brgy":"Bagumbong"},{"id":31178,"zip":1426,"lat":14.76469,"lng":121.02533,"region":"National Capital Region (NCR)","city":"Caloocan City","brgy":"Bankers village"},{"id":31179,"zip":1400,"lat":14.65891,"lng":120.97311,"region":"National Capital Region (NCR)","city":"Caloocan City","brgy":"Barangay 1"},{"id":31180,"zip":1400,"lat":14.6547,"lng":120.97096,"region":"National Capital Region (NCR)","city":"Caloocan City","brgy":"Barangay 10"},{"id":31181,"zip":1400,"lat":14.6534,"lng":120.996,"region":"National Capital Region (NCR)","city":"Caloocan City","brgy":"Barangay 100"},{"id":31182,"zip":1400,"lat":14.65065,"lng":120.99301,"region":"National Capital Region (NCR)","city":"Caloocan City","brgy":"Barangay 101"},{"id":31183,"zip":1400,"lat":14.64987,"lng":120.99498,"region":"National Capital Region (NCR)","city":"Caloocan City","brgy":"Barangay 102"},{"id":31184,"zip":1400,"lat":14.64913,"lng":120.99014,"region":"National Capital Region (NCR)","city":"Caloocan City","brgy":"Barangay 103"},{"id":31185,"zip":1400,"lat":14.71914,"lng":121.00765,"region":"National Capital Region (NCR)","city":"Caloocan City","brgy":"Barangay 104"},{"id":31186,"zip":1400,"lat":14.64806,"lng":120.99301,"region":"National Capital Region (NCR)","city":"Caloocan City","brgy":"Barangay 105"},{"id":31187,"zip":1400,"lat":14.64997,"lng":120.98441,"region":"National Capital Region (NCR)","city":"Caloocan City","brgy":"Barangay 106"},{"id":31188,"zip":1400,"lat":14.64976,"lng":120.98584,"region":"National Capital Region (NCR)","city":"Caloocan City","brgy":"Barangay 107"},{"id":31189,"zip":1400,"lat":14.71914,"lng":121.00765,"region":"National Capital Region (NCR)","city":"Caloocan City","brgy":"Barangay 108"},{"id":31190,"zip":1400,"lat":14.64782,"lng":120.98584,"region":"National Capital Region (NCR)","city":"Caloocan City","brgy":"Barangay 109"},{"id":31191,"zip":1400,"lat":14.65467,"lng":120.97006,"region":"National Capital Region (NCR)","city":"Caloocan City","brgy":"Barangay 11"},{"id":31192,"zip":1400,"lat":14.64674,"lng":120.98441,"region":"National Capital Region (NCR)","city":"Caloocan City","brgy":"Barangay 110"},{"id":31193,"zip":1400,"lat":14.64653,"lng":120.98584,"region":"National Capital Region (NCR)","city":"Caloocan City","brgy":"Barangay 111"},{"id":31194,"zip":1400,"lat":14.64632,"lng":120.98727,"region":"National Capital Region (NCR)","city":"Caloocan City","brgy":"Barangay 112"},{"id":31195,"zip":1400,"lat":14.6448,"lng":120.98441,"region":"National Capital Region (NCR)","city":"Caloocan City","brgy":"Barangay 113"},{"id":31196,"zip":1400,"lat":14.64515,"lng":120.9853,"region":"National Capital Region (NCR)","city":"Caloocan City","brgy":"Barangay 114"},{"id":31197,"zip":1400,"lat":14.64504,"lng":120.98602,"region":"National Capital Region (NCR)","city":"Caloocan City","brgy":"Barangay 115"},{"id":31198,"zip":1400,"lat":14.64502,"lng":120.98727,"region":"National Capital Region (NCR)","city":"Caloocan City","brgy":"Barangay 116"},{"id":31199,"zip":1400,"lat":14.71914,"lng":121.00765,"region":"National Capital Region (NCR)","city":"Caloocan City","brgy":"Barangay 117"},{"id":31200,"zip":1400,"lat":14.64151,"lng":120.98692,"region":"National Capital Region (NCR)","city":"Caloocan City","brgy":"Barangay 118"},{"id":31201,"zip":1400,"lat":14.71914,"lng":121.00765,"region":"National Capital Region (NCR)","city":"Caloocan City","brgy":"Barangay 119"},{"id":31202,"zip":1400,"lat":14.62043,"lng":121.02761,"region":"National Capital Region (NCR)","city":"Caloocan City","brgy":"Barangay 12"},{"id":31203,"zip":1400,"lat":14.71914,"lng":121.00765,"region":"National Capital Region (NCR)","city":"Caloocan City","brgy":"Barangay 120"},{"id":31204,"zip":1400,"lat":14.646,"lng":120.98942,"region":"National Capital Region (NCR)","city":"Caloocan City","brgy":"Barangay 121"},{"id":31205,"zip":1400,"lat":14.64623,"lng":120.99229,"region":"National Capital Region (NCR)","city":"Caloocan City","brgy":"Barangay 122"},{"id":31206,"zip":1400,"lat":14.64481,"lng":120.98871,"region":"National Capital Region (NCR)","city":"Caloocan City","brgy":"Barangay 123"},{"id":31207,"zip":1400,"lat":14.6446,"lng":120.99014,"region":"National Capital Region (NCR)","city":"Caloocan City","brgy":"Barangay 124"},{"id":31208,"zip":1400,"lat":14.64428,"lng":120.99229,"region":"National Capital Region (NCR)","city":"Caloocan City","brgy":"Barangay 125"},{"id":31209,"zip":1400,"lat":14.6431,"lng":120.99158,"region":"National Capital Region (NCR)","city":"Caloocan City","brgy":"Barangay 126"},{"id":31210,"zip":1400,"lat":14.64126,"lng":120.99086,"region":"National Capital Region (NCR)","city":"Caloocan City","brgy":"Barangay 127"},{"id":31211,"zip":1400,"lat":14.63942,"lng":120.99014,"region":"National Capital Region (NCR)","city":"Caloocan City","brgy":"Barangay 128"},{"id":31212,"zip":1400,"lat":14.63869,"lng":120.9896,"region":"National Capital Region (NCR)","city":"Caloocan City","brgy":"Barangay 129"},{"id":31213,"zip":1400,"lat":14.62118,"lng":121.02721,"region":"National Capital Region (NCR)","city":"Caloocan City","brgy":"Barangay 13"},{"id":31214,"zip":1400,"lat":14.63759,"lng":120.98942,"region":"National Capital Region (NCR)","city":"Caloocan City","brgy":"Barangay 130"},{"id":31215,"zip":1400,"lat":14.63727,"lng":120.99158,"region":"National Capital Region (NCR)","city":"Caloocan City","brgy":"Barangay 131"},{"id":31216,"zip":1400,"lat":14.66326,"lng":120.99086,"region":"National Capital Region (NCR)","city":"Caloocan City","brgy":"Barangay 132"},{"id":31217,"zip":1400,"lat":14.71914,"lng":121.00765,"region":"National Capital Region (NCR)","city":"Caloocan City","brgy":"Barangay 133"},{"id":31218,"zip":1400,"lat":14.65938,"lng":120.99086,"region":"National Capital Region (NCR)","city":"Caloocan City","brgy":"Barangay 134"},{"id":31219,"zip":1400,"lat":14.65917,"lng":120.99229,"region":"National Capital Region (NCR)","city":"Caloocan City","brgy":"Barangay 135"},{"id":31220,"zip":1400,"lat":14.65858,"lng":120.99408,"region":"National Capital Region (NCR)","city":"Caloocan City","brgy":"Barangay 136"},{"id":31221,"zip":1400,"lat":14.66079,"lng":120.99444,"region":"National Capital Region (NCR)","city":"Caloocan City","brgy":"Barangay 137"},{"id":31222,"zip":1400,"lat":14.66075,"lng":120.99695,"region":"National Capital Region (NCR)","city":"Caloocan City","brgy":"Barangay 138"},{"id":31223,"zip":1400,"lat":14.65951,"lng":120.99874,"region":"National Capital Region (NCR)","city":"Caloocan City","brgy":"Barangay 139"},{"id":31224,"zip":1400,"lat":14.64964,"lng":120.96684,"region":"National Capital Region (NCR)","city":"Caloocan City","brgy":"Barangay 14"},{"id":31225,"zip":1400,"lat":14.71914,"lng":121.00765,"region":"National Capital Region (NCR)","city":"Caloocan City","brgy":"Barangay 140"},{"id":31226,"zip":1400,"lat":14.66286,"lng":120.99803,"region":"National Capital Region (NCR)","city":"Caloocan City","brgy":"Barangay 141"},{"id":31227,"zip":1400,"lat":14.66448,"lng":120.99247,"region":"National Capital Region (NCR)","city":"Caloocan City","brgy":"Barangay 142"},{"id":31228,"zip":1400,"lat":14.71914,"lng":121.00765,"region":"National Capital Region (NCR)","city":"Caloocan City","brgy":"Barangay 143"},{"id":31229,"zip":1400,"lat":14.71914,"lng":121.00765,"region":"National Capital Region (NCR)","city":"Caloocan City","brgy":"Barangay 144"},{"id":31230,"zip":1400,"lat":14.66543,"lng":120.99373,"region":"National Capital Region (NCR)","city":"Caloocan City","brgy":"Barangay 145"},{"id":31231,"zip":1400,"lat":14.71914,"lng":121.00765,"region":"National Capital Region (NCR)","city":"Caloocan City","brgy":"Barangay 146"},{"id":31232,"zip":1400,"lat":14.66426,"lng":120.99731,"region":"National Capital Region (NCR)","city":"Caloocan City","brgy":"Barangay 147"},{"id":31233,"zip":1400,"lat":14.66563,"lng":120.9957,"region":"National Capital Region (NCR)","city":"Caloocan City","brgy":"Barangay 148"},{"id":31234,"zip":1400,"lat":14.66724,"lng":120.9957,"region":"National Capital Region (NCR)","city":"Caloocan City","brgy":"Barangay 149"},{"id":31235,"zip":1400,"lat":14.6904,"lng":121.01901,"region":"National Capital Region (NCR)","city":"Caloocan City","brgy":"Barangay 15"},{"id":31236,"zip":1400,"lat":14.71914,"lng":121.00765,"region":"National Capital Region (NCR)","city":"Caloocan City","brgy":"Barangay 150"},{"id":31237,"zip":1400,"lat":14.6652,"lng":120.99857,"region":"National Capital Region (NCR)","city":"Caloocan City","brgy":"Barangay 151"},{"id":31238,"zip":1400,"lat":14.71914,"lng":121.00765,"region":"National Capital Region (NCR)","city":"Caloocan City","brgy":"Barangay 152"},{"id":31239,"zip":1400,"lat":14.66728,"lng":120.99874,"region":"National Capital Region (NCR)","city":"Caloocan City","brgy":"Barangay 153"},{"id":31240,"zip":1400,"lat":14.66588,"lng":120.99946,"region":"National Capital Region (NCR)","city":"Caloocan City","brgy":"Barangay 154"},{"id":31241,"zip":1400,"lat":14.66847,"lng":120.99946,"region":"National Capital Region (NCR)","city":"Caloocan City","brgy":"Barangay 155"},{"id":31242,"zip":1400,"lat":14.66678,"lng":121.00107,"region":"National Capital Region (NCR)","city":"Caloocan City","brgy":"Barangay 156"},{"id":31243,"zip":1400,"lat":14.66826,"lng":121.0009,"region":"National Capital Region (NCR)","city":"Caloocan City","brgy":"Barangay 157"},{"id":31244,"zip":1400,"lat":14.67155,"lng":121.00269,"region":"National Capital Region (NCR)","city":"Caloocan City","brgy":"Barangay 158"},{"id":31245,"zip":1400,"lat":14.67718,"lng":121.00842,"region":"National Capital Region (NCR)","city":"Caloocan City","brgy":"Barangay 159"},{"id":31246,"zip":1400,"lat":14.62422,"lng":121.02531,"region":"National Capital Region (NCR)","city":"Caloocan City","brgy":"Barangay 16"},{"id":31247,"zip":1400,"lat":14.68158,"lng":121.00054,"region":"National Capital Region (NCR)","city":"Caloocan City","brgy":"Barangay 160"},{"id":31248,"zip":1400,"lat":14.6764,"lng":121.00054,"region":"National Capital Region (NCR)","city":"Caloocan City","brgy":"Barangay 161"},{"id":31249,"zip":1400,"lat":14.68332,"lng":121.00627,"region":"National Capital Region (NCR)","city":"Caloocan City","brgy":"Barangay 162"},{"id":31250,"zip":1400,"lat":14.68281,"lng":121.01416,"region":"National Capital Region (NCR)","city":"Caloocan City","brgy":"Barangay 163"},{"id":31251,"zip":1400,"lat":14.6894,"lng":121.01774,"region":"National Capital Region (NCR)","city":"Caloocan City","brgy":"Barangay 164"},{"id":31252,"zip":1400,"lat":14.71914,"lng":121.00765,"region":"National Capital Region (NCR)","city":"Caloocan City","brgy":"Barangay 165"},{"id":31253,"zip":1400,"lat":14.72132,"lng":121.01201,"region":"National Capital Region (NCR)","city":"Caloocan City","brgy":"Barangay 166"},{"id":31254,"zip":1400,"lat":14.71914,"lng":121.00765,"region":"National Capital Region (NCR)","city":"Caloocan City","brgy":"Barangay 167"},{"id":31255,"zip":1400,"lat":14.71914,"lng":121.00765,"region":"National Capital Region (NCR)","city":"Caloocan City","brgy":"Barangay 168"},{"id":31256,"zip":1400,"lat":14.71914,"lng":121.00765,"region":"National Capital Region (NCR)","city":"Caloocan City","brgy":"Barangay 169"},{"id":31257,"zip":1400,"lat":14.62445,"lng":121.02382,"region":"National Capital Region (NCR)","city":"Caloocan City","brgy":"Barangay 17"},{"id":31258,"zip":1400,"lat":14.71914,"lng":121.00765,"region":"National Capital Region (NCR)","city":"Caloocan City","brgy":"Barangay 170"},{"id":31259,"zip":1400,"lat":14.71914,"lng":121.00765,"region":"National Capital Region (NCR)","city":"Caloocan City","brgy":"Barangay 171"},{"id":31260,"zip":1400,"lat":14.74556,"lng":121.04068,"region":"National Capital Region (NCR)","city":"Caloocan City","brgy":"Barangay 172"},{"id":31261,"zip":1400,"lat":14.75418,"lng":121.03494,"region":"National Capital Region (NCR)","city":"Caloocan City","brgy":"Barangay 173"},{"id":31262,"zip":1400,"lat":14.7594,"lng":121.05214,"region":"National Capital Region (NCR)","city":"Caloocan City","brgy":"Barangay 174"},{"id":31263,"zip":1400,"lat":14.71914,"lng":121.00765,"region":"National Capital Region (NCR)","city":"Caloocan City","brgy":"Barangay 175"},{"id":31264,"zip":1400,"lat":14.71914,"lng":121.00765,"region":"National Capital Region (NCR)","city":"Caloocan City","brgy":"Barangay 176"},{"id":31265,"zip":1400,"lat":14.74754,"lng":121.05358,"region":"National Capital Region (NCR)","city":"Caloocan City","brgy":"Barangay 177"},{"id":31266,"zip":1400,"lat":14.74584,"lng":121.06504,"region":"National Capital Region (NCR)","city":"Caloocan City","brgy":"Barangay 178"},{"id":31267,"zip":1400,"lat":14.75449,"lng":121.0765,"region":"National Capital Region (NCR)","city":"Caloocan City","brgy":"Barangay 179"},{"id":31268,"zip":1400,"lat":14.62553,"lng":121.02386,"region":"National Capital Region (NCR)","city":"Caloocan City","brgy":"Barangay 18"},{"id":31269,"zip":1400,"lat":14.71914,"lng":121.00765,"region":"National Capital Region (NCR)","city":"Caloocan City","brgy":"Barangay 180"},{"id":31270,"zip":1400,"lat":14.71914,"lng":121.00765,"region":"National Capital Region (NCR)","city":"Caloocan City","brgy":"Barangay 181"},{"id":31271,"zip":1400,"lat":14.76197,"lng":121.09155,"region":"National Capital Region (NCR)","city":"Caloocan City","brgy":"Barangay 182"},{"id":31272,"zip":1400,"lat":14.71914,"lng":121.00765,"region":"National Capital Region (NCR)","city":"Caloocan City","brgy":"Barangay 183"},{"id":31273,"zip":1400,"lat":14.76583,"lng":121.08295,"region":"National Capital Region (NCR)","city":"Caloocan City","brgy":"Barangay 184"},{"id":31274,"zip":1400,"lat":14.71914,"lng":121.00765,"region":"National Capital Region (NCR)","city":"Caloocan City","brgy":"Barangay 185"},{"id":31275,"zip":1400,"lat":14.71914,"lng":121.00765,"region":"National Capital Region (NCR)","city":"Caloocan City","brgy":"Barangay 186"},{"id":31276,"zip":1400,"lat":14.71914,"lng":121.00765,"region":"National Capital Region (NCR)","city":"Caloocan City","brgy":"Barangay 187"},{"id":31277,"zip":1400,"lat":14.71914,"lng":121.00765,"region":"National Capital Region (NCR)","city":"Caloocan City","brgy":"Barangay 188"},{"id":31278,"zip":1400,"lat":14.62596,"lng":121.02319,"region":"National Capital Region (NCR)","city":"Caloocan City","brgy":"Barangay 19"},{"id":31279,"zip":1400,"lat":14.66083,"lng":120.97222,"region":"National Capital Region (NCR)","city":"Caloocan City","brgy":"Barangay 2"},{"id":31280,"zip":1400,"lat":14.64701,"lng":120.96935,"region":"National Capital Region (NCR)","city":"Caloocan City","brgy":"Barangay 20"},{"id":31281,"zip":1400,"lat":14.69803,"lng":120.99229,"region":"National Capital Region (NCR)","city":"Caloocan City","brgy":"Barangay 21"},{"id":31282,"zip":1400,"lat":14.64534,"lng":120.96971,"region":"National Capital Region (NCR)","city":"Caloocan City","brgy":"Barangay 22"},{"id":31283,"zip":1400,"lat":14.64368,"lng":120.97437,"region":"National Capital Region (NCR)","city":"Caloocan City","brgy":"Barangay 23"},{"id":31284,"zip":1400,"lat":14.64324,"lng":120.97293,"region":"National Capital Region (NCR)","city":"Caloocan City","brgy":"Barangay 24"},{"id":31285,"zip":1400,"lat":14.69781,"lng":120.99373,"region":"National Capital Region (NCR)","city":"Caloocan City","brgy":"Barangay 25"},{"id":31286,"zip":1400,"lat":14.71914,"lng":121.00765,"region":"National Capital Region (NCR)","city":"Caloocan City","brgy":"Barangay 26"},{"id":31287,"zip":1400,"lat":14.71914,"lng":121.00765,"region":"National Capital Region (NCR)","city":"Caloocan City","brgy":"Barangay 27"},{"id":31288,"zip":1400,"lat":14.71914,"lng":121.00765,"region":"National Capital Region (NCR)","city":"Caloocan City","brgy":"Barangay 28"},{"id":31289,"zip":1400,"lat":14.75636,"lng":121.03242,"region":"National Capital Region (NCR)","city":"Caloocan City","brgy":"Barangay 29"},{"id":31290,"zip":1400,"lat":14.65888,"lng":120.97222,"region":"National Capital Region (NCR)","city":"Caloocan City","brgy":"Barangay 3"},{"id":31291,"zip":1400,"lat":14.63915,"lng":120.97437,"region":"National Capital Region (NCR)","city":"Caloocan City","brgy":"Barangay 30"},{"id":31292,"zip":1400,"lat":14.64022,"lng":120.9715,"region":"National Capital Region (NCR)","city":"Caloocan City","brgy":"Barangay 31"},{"id":31293,"zip":1400,"lat":14.71914,"lng":121.00765,"region":"National Capital Region (NCR)","city":"Caloocan City","brgy":"Barangay 32"},{"id":31294,"zip":1400,"lat":14.63646,"lng":120.97508,"region":"National Capital Region (NCR)","city":"Caloocan City","brgy":"Barangay 33"},{"id":31295,"zip":1400,"lat":14.63677,"lng":120.97293,"region":"National Capital Region (NCR)","city":"Caloocan City","brgy":"Barangay 34"},{"id":31296,"zip":1400,"lat":14.63892,"lng":120.9715,"region":"National Capital Region (NCR)","city":"Caloocan City","brgy":"Barangay 35"},{"id":31297,"zip":1400,"lat":14.63631,"lng":120.97831,"region":"National Capital Region (NCR)","city":"Caloocan City","brgy":"Barangay 36"},{"id":31298,"zip":1400,"lat":14.63862,"lng":120.97795,"region":"National Capital Region (NCR)","city":"Caloocan City","brgy":"Barangay 37"},{"id":31299,"zip":1400,"lat":14.63906,"lng":120.97939,"region":"National Capital Region (NCR)","city":"Caloocan City","brgy":"Barangay 38"},{"id":31300,"zip":1400,"lat":14.63748,"lng":120.98243,"region":"National Capital Region (NCR)","city":"Caloocan City","brgy":"Barangay 39"},{"id":31301,"zip":1400,"lat":14.65866,"lng":120.96935,"region":"National Capital Region (NCR)","city":"Caloocan City","brgy":"Barangay 4"},{"id":31302,"zip":1400,"lat":14.63845,"lng":120.98243,"region":"National Capital Region (NCR)","city":"Caloocan City","brgy":"Barangay 40"},{"id":31303,"zip":1400,"lat":14.63929,"lng":120.98225,"region":"National Capital Region (NCR)","city":"Caloocan City","brgy":"Barangay 41"},{"id":31304,"zip":1400,"lat":14.63936,"lng":120.98064,"region":"National Capital Region (NCR)","city":"Caloocan City","brgy":"Barangay 42"},{"id":31305,"zip":1400,"lat":14.64121,"lng":120.97795,"region":"National Capital Region (NCR)","city":"Caloocan City","brgy":"Barangay 43"},{"id":31306,"zip":1400,"lat":14.6409,"lng":120.9801,"region":"National Capital Region (NCR)","city":"Caloocan City","brgy":"Barangay 44"},{"id":31307,"zip":1400,"lat":14.64123,"lng":120.98225,"region":"National Capital Region (NCR)","city":"Caloocan City","brgy":"Barangay 45"},{"id":31308,"zip":1400,"lat":14.64251,"lng":120.97795,"region":"National Capital Region (NCR)","city":"Caloocan City","brgy":"Barangay 46"},{"id":31309,"zip":1400,"lat":14.64219,"lng":120.9801,"region":"National Capital Region (NCR)","city":"Caloocan City","brgy":"Barangay 47"},{"id":31310,"zip":1400,"lat":14.64252,"lng":120.98225,"region":"National Capital Region (NCR)","city":"Caloocan City","brgy":"Barangay 48"},{"id":31311,"zip":1400,"lat":14.64455,"lng":120.97724,"region":"National Capital Region (NCR)","city":"Caloocan City","brgy":"Barangay 49"},{"id":31312,"zip":1400,"lat":14.77346,"lng":121.02956,"region":"National Capital Region (NCR)","city":"Caloocan City","brgy":"Barangay 5"},{"id":31313,"zip":1400,"lat":14.6437,"lng":120.97867,"region":"National Capital Region (NCR)","city":"Caloocan City","brgy":"Barangay 50"},{"id":31314,"zip":1400,"lat":14.64392,"lng":120.98154,"region":"National Capital Region (NCR)","city":"Caloocan City","brgy":"Barangay 51"},{"id":31315,"zip":1400,"lat":14.64674,"lng":120.9767,"region":"National Capital Region (NCR)","city":"Caloocan City","brgy":"Barangay 52"},{"id":31316,"zip":1400,"lat":14.71914,"lng":121.00765,"region":"National Capital Region (NCR)","city":"Caloocan City","brgy":"Barangay 53"},{"id":31317,"zip":1400,"lat":14.64651,"lng":120.98154,"region":"National Capital Region (NCR)","city":"Caloocan City","brgy":"Barangay 54"},{"id":31318,"zip":1400,"lat":14.64522,"lng":120.98154,"region":"National Capital Region (NCR)","city":"Caloocan City","brgy":"Barangay 55"},{"id":31319,"zip":1400,"lat":14.6479,"lng":120.97652,"region":"National Capital Region (NCR)","city":"Caloocan City","brgy":"Barangay 56"},{"id":31320,"zip":1400,"lat":14.64812,"lng":120.97939,"region":"National Capital Region (NCR)","city":"Caloocan City","brgy":"Barangay 57"},{"id":31321,"zip":1400,"lat":14.6477,"lng":120.98225,"region":"National Capital Region (NCR)","city":"Caloocan City","brgy":"Barangay 58"},{"id":31322,"zip":1400,"lat":14.71914,"lng":121.00765,"region":"National Capital Region (NCR)","city":"Caloocan City","brgy":"Barangay 59"},{"id":31323,"zip":1400,"lat":14.77383,"lng":121.02978,"region":"National Capital Region (NCR)","city":"Caloocan City","brgy":"Barangay 6"},{"id":31324,"zip":1400,"lat":14.65017,"lng":120.97867,"region":"National Capital Region (NCR)","city":"Caloocan City","brgy":"Barangay 60"},{"id":31325,"zip":1400,"lat":14.6491,"lng":120.98154,"region":"National Capital Region (NCR)","city":"Caloocan City","brgy":"Barangay 61"},{"id":31326,"zip":1400,"lat":14.65104,"lng":120.98154,"region":"National Capital Region (NCR)","city":"Caloocan City","brgy":"Barangay 62"},{"id":31327,"zip":1400,"lat":14.71914,"lng":121.00765,"region":"National Capital Region (NCR)","city":"Caloocan City","brgy":"Barangay 63"},{"id":31328,"zip":1400,"lat":14.76017,"lng":121.0496,"region":"National Capital Region (NCR)","city":"Caloocan City","brgy":"Barangay 64"},{"id":31329,"zip":1400,"lat":14.71914,"lng":121.00765,"region":"National Capital Region (NCR)","city":"Caloocan City","brgy":"Barangay 65"},{"id":31330,"zip":1400,"lat":14.71914,"lng":121.00765,"region":"National Capital Region (NCR)","city":"Caloocan City","brgy":"Barangay 66"},{"id":31331,"zip":1400,"lat":14.71914,"lng":121.00765,"region":"National Capital Region (NCR)","city":"Caloocan City","brgy":"Barangay 67"},{"id":31332,"zip":1400,"lat":14.71914,"lng":121.00765,"region":"National Capital Region (NCR)","city":"Caloocan City","brgy":"Barangay 68"},{"id":31333,"zip":1400,"lat":14.71914,"lng":121.00765,"region":"National Capital Region (NCR)","city":"Caloocan City","brgy":"Barangay 69"},{"id":31334,"zip":1400,"lat":14.61766,"lng":121.03235,"region":"National Capital Region (NCR)","city":"Caloocan City","brgy":"Barangay 7"},{"id":31335,"zip":1400,"lat":14.71914,"lng":121.00765,"region":"National Capital Region (NCR)","city":"Caloocan City","brgy":"Barangay 70"},{"id":31336,"zip":1400,"lat":14.71914,"lng":121.00765,"region":"National Capital Region (NCR)","city":"Caloocan City","brgy":"Barangay 71"},{"id":31337,"zip":1400,"lat":14.71914,"lng":121.00765,"region":"National Capital Region (NCR)","city":"Caloocan City","brgy":"Barangay 72"},{"id":31338,"zip":1400,"lat":14.71914,"lng":121.00765,"region":"National Capital Region (NCR)","city":"Caloocan City","brgy":"Barangay 73"},{"id":31339,"zip":1400,"lat":14.6561,"lng":120.97795,"region":"National Capital Region (NCR)","city":"Caloocan City","brgy":"Barangay 74"},{"id":31340,"zip":1400,"lat":14.71914,"lng":121.00765,"region":"National Capital Region (NCR)","city":"Caloocan City","brgy":"Barangay 75"},{"id":31341,"zip":1400,"lat":14.71914,"lng":121.00765,"region":"National Capital Region (NCR)","city":"Caloocan City","brgy":"Barangay 76"},{"id":31342,"zip":1400,"lat":14.71914,"lng":121.00765,"region":"National Capital Region (NCR)","city":"Caloocan City","brgy":"Barangay 77"},{"id":31343,"zip":1400,"lat":14.6586,"lng":120.98297,"region":"National Capital Region (NCR)","city":"Caloocan City","brgy":"Barangay 78"},{"id":31344,"zip":1400,"lat":14.65918,"lng":120.98118,"region":"National Capital Region (NCR)","city":"Caloocan City","brgy":"Barangay 79"},{"id":31345,"zip":1400,"lat":14.65762,"lng":120.9654,"region":"National Capital Region (NCR)","city":"Caloocan City","brgy":"Barangay 8"},{"id":31346,"zip":1400,"lat":14.65906,"lng":120.97759,"region":"National Capital Region (NCR)","city":"Caloocan City","brgy":"Barangay 80"},{"id":31347,"zip":1400,"lat":14.65903,"lng":120.98441,"region":"National Capital Region (NCR)","city":"Caloocan City","brgy":"Barangay 81"},{"id":31348,"zip":1400,"lat":14.66283,"lng":120.98942,"region":"National Capital Region (NCR)","city":"Caloocan City","brgy":"Barangay 82"},{"id":31349,"zip":1400,"lat":14.6584,"lng":120.98871,"region":"National Capital Region (NCR)","city":"Caloocan City","brgy":"Barangay 83"},{"id":31350,"zip":1400,"lat":14.65964,"lng":120.98692,"region":"National Capital Region (NCR)","city":"Caloocan City","brgy":"Barangay 84"},{"id":31351,"zip":1400,"lat":14.65908,"lng":120.9896,"region":"National Capital Region (NCR)","city":"Caloocan City","brgy":"Barangay 85"},{"id":31352,"zip":1400,"lat":14.65613,"lng":120.98656,"region":"National Capital Region (NCR)","city":"Caloocan City","brgy":"Barangay 86"},{"id":31353,"zip":1400,"lat":14.65625,"lng":120.99014,"region":"National Capital Region (NCR)","city":"Caloocan City","brgy":"Barangay 87"},{"id":31354,"zip":1400,"lat":14.65494,"lng":120.98584,"region":"National Capital Region (NCR)","city":"Caloocan City","brgy":"Barangay 88"},{"id":31355,"zip":1400,"lat":14.65377,"lng":120.98942,"region":"National Capital Region (NCR)","city":"Caloocan City","brgy":"Barangay 89"},{"id":31356,"zip":1400,"lat":14.61672,"lng":121.02704,"region":"National Capital Region (NCR)","city":"Caloocan City","brgy":"Barangay 9"},{"id":31357,"zip":1400,"lat":14.65354,"lng":120.98656,"region":"National Capital Region (NCR)","city":"Caloocan City","brgy":"Barangay 90"},{"id":31358,"zip":1400,"lat":14.65225,"lng":120.98656,"region":"National Capital Region (NCR)","city":"Caloocan City","brgy":"Barangay 91"},{"id":31359,"zip":1400,"lat":14.65345,"lng":120.99158,"region":"National Capital Region (NCR)","city":"Caloocan City","brgy":"Barangay 92"},{"id":31360,"zip":1400,"lat":14.65161,"lng":120.99086,"region":"National Capital Region (NCR)","city":"Caloocan City","brgy":"Barangay 93"},{"id":31361,"zip":1400,"lat":14.65637,"lng":120.99373,"region":"National Capital Region (NCR)","city":"Caloocan City","brgy":"Barangay 94"},{"id":31362,"zip":1400,"lat":14.65659,"lng":120.99659,"region":"National Capital Region (NCR)","city":"Caloocan City","brgy":"Barangay 95"},{"id":31363,"zip":1400,"lat":14.6547,"lng":120.99408,"region":"National Capital Region (NCR)","city":"Caloocan City","brgy":"Barangay 96"},{"id":31364,"zip":1400,"lat":14.65259,"lng":120.99301,"region":"National Capital Region (NCR)","city":"Caloocan City","brgy":"Barangay 97"},{"id":31365,"zip":1400,"lat":14.65238,"lng":120.99444,"region":"National Capital Region (NCR)","city":"Caloocan City","brgy":"Barangay 98"},{"id":31366,"zip":1400,"lat":14.6553,"lng":120.99659,"region":"National Capital Region (NCR)","city":"Caloocan City","brgy":"Barangay 99"},{"id":31367,"zip":1424,"lat":14.74,"lng":121.06,"region":"National Capital Region (NCR)","city":"Caloocan City","brgy":"Captol Parkland"},{"id":31368,"zip":1429,"lat":14.78,"lng":121.04,"region":"National Capital Region (NCR)","city":"Caloocan City","brgy":"Cefels Park"},{"id":31369,"zip":1420,"lat":14.73974,"lng":121.01139,"region":"National Capital Region (NCR)","city":"Caloocan City","brgy":"Deparo"},{"id":31370,"zip":1405,"lat":14.64736,"lng":120.98288,"region":"National Capital Region (NCR)","city":"Caloocan City","brgy":"First Avenue to Seventh Avenue West"},{"id":31371,"zip":1411,"lat":14.63,"lng":120.96,"region":"National Capital Region (NCR)","city":"Caloocan City","brgy":"Fish Market"},{"id":31372,"zip":1403,"lat":14.64869,"lng":120.98665,"region":"National Capital Region (NCR)","city":"Caloocan City","brgy":"Grace Park East"},{"id":31373,"zip":1406,"lat":14.64869,"lng":120.98665,"region":"National Capital Region (NCR)","city":"Caloocan City","brgy":"Grace Park West"},{"id":31374,"zip":1412,"lat":14.6344,"lng":120.9674,"region":"National Capital Region (NCR)","city":"Caloocan City","brgy":"Isla de Cocomo"},{"id":31375,"zip":1413,"lat":14.65,"lng":121.0,"region":"National Capital Region (NCR)","city":"Caloocan City","brgy":"Kapitbayahan"},{"id":31376,"zip":1409,"lat":14.66624,"lng":120.9969,"region":"National Capital Region (NCR)","city":"Caloocan City","brgy":"Kaunlaran village"},{"id":31377,"zip":1420,"lat":14.71914,"lng":121.00765,"region":"National Capital Region (NCR)","city":"Caloocan City","brgy":"Kaybiga"},{"id":31378,"zip":1423,"lat":14.73,"lng":121.05,"region":"National Capital Region (NCR)","city":"Caloocan City","brgy":"Lilles Ville"},{"id":31379,"zip":1410,"lat":14.63752,"lng":120.97286,"region":"National Capital Region (NCR)","city":"Caloocan City","brgy":"Maypajo"},{"id":31380,"zip":1422,"lat":14.7214,"lng":121.05214,"region":"National Capital Region (NCR)","city":"Caloocan City","brgy":"Novaliches North"},{"id":31381,"zip":1421,"lat":14.63774,"lng":120.99134,"region":"National Capital Region (NCR)","city":"Caloocan City","brgy":"Pag-asa"},{"id":31382,"zip":1404,"lat":14.64046,"lng":120.99408,"region":"National Capital Region (NCR)","city":"Caloocan City","brgy":"San Jose"},{"id":31383,"zip":1408,"lat":14.67344,"lng":121.02061,"region":"National Capital Region (NCR)","city":"Caloocan City","brgy":"Sangandaan"},{"id":31384,"zip":1402,"lat":14.6794,"lng":121.01002,"region":"National Capital Region (NCR)","city":"Caloocan City","brgy":"Santa Quiteria"},{"id":31385,"zip":1427,"lat":14.77,"lng":121.03,"region":"National Capital Region (NCR)","city":"Caloocan City","brgy":"Tala Leprosarium"},{"id":31386,"zip":1407,"lat":14.66465,"lng":121.01625,"region":"National Capital Region (NCR)","city":"Caloocan City","brgy":"University Hills"},{"id":31387,"zip":1427,"lat":14.62251,"lng":121.01177,"region":"National Capital Region (NCR)","city":"Caloocan City","brgy":"Victory Heights"},{"id":31388,"zip":1500,"lat":14.58553,"lng":121.03781,"region":"National Capital Region (NCR)","city":"City of San Juan","brgy":"Addition Hills"},{"id":31389,"zip":1500,"lat":14.60866,"lng":121.02563,"region":"National Capital Region (NCR)","city":"City of San Juan","brgy":"Balong-Bato"},{"id":31390,"zip":1500,"lat":14.60015,"lng":121.02634,"region":"National Capital Region (NCR)","city":"City of San Juan","brgy":"Batis"},{"id":31391,"zip":1500,"lat":14.60523,"lng":121.03136,"region":"National Capital Region (NCR)","city":"City of San Juan","brgy":"Corazon de Jesus"},{"id":31392,"zip":1504,"lat":14.60528,"lng":121.04888,"region":"National Capital Region (NCR)","city":"City of San Juan","brgy":"Eisenhower Crame"},{"id":31393,"zip":1500,"lat":14.583,"lng":120.983,"region":"National Capital Region (NCR)","city":"City of San Juan","brgy":"Ermita"},{"id":31394,"zip":1502,"lat":14.60237,"lng":121.04641,"region":"National Capital Region (NCR)","city":"City of San Juan","brgy":"Greenhills"},{"id":31395,"zip":1503,"lat":14.60345,"lng":121.04458,"region":"National Capital Region (NCR)","city":"City of San Juan","brgy":"Greenhills North"},{"id":31396,"zip":1500,"lat":14.6,"lng":121.0,"region":"National Capital Region (NCR)","city":"City of San Juan","brgy":"Halo-Halo (St. Joseph)"},{"id":31397,"zip":1500,"lat":14.60264,"lng":121.03136,"region":"National Capital Region (NCR)","city":"City of San Juan","brgy":"Isabelita"},{"id":31398,"zip":1500,"lat":14.59681,"lng":121.02706,"region":"National Capital Region (NCR)","city":"City of San Juan","brgy":"Kabayanan"},{"id":31399,"zip":1500,"lat":14.6018,"lng":121.03709,"region":"National Capital Region (NCR)","city":"City of San Juan","brgy":"Little Baguio"},{"id":31400,"zip":1500,"lat":14.59029,"lng":121.03669,"region":"National Capital Region (NCR)","city":"City of San Juan","brgy":"Maytunas"},{"id":31401,"zip":1500,"lat":14.60006,"lng":121.03136,"region":"National Capital Region (NCR)","city":"City of San Juan","brgy":"Onse"},{"id":31402,"zip":1500,"lat":14.60787,"lng":121.03625,"region":"National Capital Region (NCR)","city":"City of San Juan","brgy":"Pasade"},{"id":31403,"zip":1500,"lat":14.60457,"lng":121.02706,"region":"National Capital Region (NCR)","city":"City of San Juan","brgy":"Pedro Cruz"},{"id":31404,"zip":1500,"lat":14.60266,"lng":121.02025,"region":"National Capital Region (NCR)","city":"City of San Juan","brgy":"Progreso"},{"id":31405,"zip":1500,"lat":14.60568,"lng":121.02168,"region":"National Capital Region (NCR)","city":"City of San Juan","brgy":"Rivera"},{"id":31406,"zip":1500,"lat":14.61089,"lng":121.0242,"region":"National Capital Region (NCR)","city":"City of San Juan","brgy":"Salapan"},{"id":31407,"zip":1500,"lat":14.60261,"lng":121.02276,"region":"National Capital Region (NCR)","city":"City of San Juan","brgy":"San Perfecto"},{"id":31408,"zip":1500,"lat":14.59783,"lng":121.03541,"region":"National Capital Region (NCR)","city":"City of San Juan","brgy":"Santa Lucia"},{"id":31409,"zip":1500,"lat":14.6,"lng":121.02957,"region":"National Capital Region (NCR)","city":"City of San Juan","brgy":"Tibagan"},{"id":31410,"zip":1500,"lat":14.6074,"lng":121.04963,"region":"National Capital Region (NCR)","city":"City of San Juan","brgy":"West Crame"},{"id":31411,"zip":1750,"lat":14.40252,"lng":121.00771,"region":"National Capital Region (NCR)","city":"Las Pinas City","brgy":"Almanza Dos"},{"id":31412,"zip":1750,"lat":14.43186,"lng":121.01918,"region":"National Capital Region (NCR)","city":"Las Pinas City","brgy":"Almanza Uno"},{"id":31413,"zip":1749,"lat":14.43733,"lng":120.99987,"region":"National Capital Region (NCR)","city":"Las Pinas City","brgy":"Angela village"},{"id":31414,"zip":1740,"lat":14.4321,"lng":120.9992,"region":"National Capital Region (NCR)","city":"Las Pinas City","brgy":"B. F. International village"},{"id":31415,"zip":1743,"lat":14.46,"lng":120.98,"region":"National Capital Region (NCR)","city":"Las Pinas City","brgy":"Cut-cut"},{"id":31416,"zip":1740,"lat":14.48135,"lng":120.98032,"region":"National Capital Region (NCR)","city":"Las Pinas City","brgy":"Daniel Fajardo"},{"id":31417,"zip":1740,"lat":14.4321,"lng":120.9992,"region":"National Capital Region (NCR)","city":"Las Pinas City","brgy":"Elias Aldana"},{"id":31418,"zip":1745,"lat":14.48113,"lng":120.99813,"region":"National Capital Region (NCR)","city":"Las Pinas City","brgy":"Gatchalian"},{"id":31419,"zip":1741,"lat":14.44617,"lng":120.9889,"region":"National Capital Region (NCR)","city":"Las Pinas City","brgy":"Greymarville"},{"id":31420,"zip":1740,"lat":14.4321,"lng":120.9992,"region":"National Capital Region (NCR)","city":"Las Pinas City","brgy":"Ilaya"},{"id":31421,"zip":1748,"lat":14.43673,"lng":121.01257,"region":"National Capital Region (NCR)","city":"Las Pinas City","brgy":"Manila Doctors village"},{"id":31422,"zip":1744,"lat":14.4677,"lng":120.9948,"region":"National Capital Region (NCR)","city":"Las Pinas City","brgy":"Manuyo Dos"},{"id":31423,"zip":1744,"lat":14.47929,"lng":120.9862,"region":"National Capital Region (NCR)","city":"Las Pinas City","brgy":"Manuyo Uno"},{"id":31424,"zip":1747,"lat":14.44969,"lng":120.98252,"region":"National Capital Region (NCR)","city":"Las Pinas City","brgy":"Moonwalk"},{"id":31425,"zip":1740,"lat":14.44735,"lng":120.97473,"region":"National Capital Region (NCR)","city":"Las Pinas City","brgy":"Pamplona Dos"},{"id":31426,"zip":1740,"lat":14.45236,"lng":120.98476,"region":"National Capital Region (NCR)","city":"Las Pinas City","brgy":"Pamplona Tres"},{"id":31427,"zip":1740,"lat":14.45811,"lng":120.97186,"region":"National Capital Region (NCR)","city":"Las Pinas City","brgy":"Pamplona Uno"},{"id":31428,"zip":1740,"lat":14.4321,"lng":120.9992,"region":"National Capital Region (NCR)","city":"Las Pinas City","brgy":"Pilar"},{"id":31429,"zip":1742,"lat":14.4612,"lng":120.9862,"region":"National Capital Region (NCR)","city":"Las Pinas City","brgy":"Pulang Lupa Dos"},{"id":31430,"zip":1742,"lat":14.47279,"lng":120.97759,"region":"National Capital Region (NCR)","city":"Las Pinas City","brgy":"Pulang Lupa Uno"},{"id":31431,"zip":1752,"lat":14.39725,"lng":121.03291,"region":"National Capital Region (NCR)","city":"Las Pinas City","brgy":"Soldiers Hills"},{"id":31432,"zip":1751,"lat":14.43867,"lng":120.97556,"region":"National Capital Region (NCR)","city":"Las Pinas City","brgy":"T.S. Cruz"},{"id":31433,"zip":1747,"lat":14.4321,"lng":120.9992,"region":"National Capital Region (NCR)","city":"Las Pinas City","brgy":"Talon Dos"},{"id":31434,"zip":1747,"lat":14.43585,"lng":121.00054,"region":"National Capital Region (NCR)","city":"Las Pinas City","brgy":"Talon Kuatro"},{"id":31435,"zip":1747,"lat":14.4321,"lng":120.9992,"region":"National Capital Region (NCR)","city":"Las Pinas City","brgy":"Talon Singko"},{"id":31436,"zip":1747,"lat":14.4321,"lng":120.9992,"region":"National Capital Region (NCR)","city":"Las Pinas City","brgy":"Talon Tres"},{"id":31437,"zip":1747,"lat":14.4321,"lng":120.9992,"region":"National Capital Region (NCR)","city":"Las Pinas City","brgy":"Talon Uno"},{"id":31438,"zip":1746,"lat":14.455,"lng":120.9813,"region":"National Capital Region (NCR)","city":"Las Pinas City","brgy":"Verdant Acres"},{"id":31439,"zip":1742,"lat":14.4321,"lng":120.9992,"region":"National Capital Region (NCR)","city":"Las Pinas City","brgy":"Zapote"},{"id":31440,"zip":1226,"lat":14.55657,"lng":121.02143,"region":"National Capital Region (NCR)","city":"Makati City","brgy":"Ayala Avenue"},{"id":31441,"zip":1224,"lat":14.55473,"lng":121.02445,"region":"National Capital Region (NCR)","city":"Makati City","brgy":"Ayala Center"},{"id":31442,"zip":1233,"lat":14.54276,"lng":121.01201,"region":"National Capital Region (NCR)","city":"Makati City","brgy":"Bangkal"},{"id":31443,"zip":1209,"lat":14.56363,"lng":121.02265,"region":"National Capital Region (NCR)","city":"Makati City","brgy":"Bel-Air"},{"id":31444,"zip":1207,"lat":14.57479,"lng":121.01846,"region":"National Capital Region (NCR)","city":"Makati City","brgy":"Carmona"},{"id":31445,"zip":1214,"lat":14.56479,"lng":121.05143,"region":"National Capital Region (NCR)","city":"Makati City","brgy":"Cembo"},{"id":31446,"zip":1217,"lat":14.54738,"lng":121.06432,"region":"National Capital Region (NCR)","city":"Makati City","brgy":"Comembo"},{"id":31447,"zip":1221,"lat":14.5399,"lng":121.0247,"region":"National Capital Region (NCR)","city":"Makati City","brgy":"Dasmarinas village North"},{"id":31448,"zip":1222,"lat":14.541,"lng":121.028,"region":"National Capital Region (NCR)","city":"Makati City","brgy":"Dasmarinas village South"},{"id":31449,"zip":1216,"lat":14.55276,"lng":121.06289,"region":"National Capital Region (NCR)","city":"Makati City","brgy":"East Rembo"},{"id":31450,"zip":1231,"lat":14.55473,"lng":121.02445,"region":"National Capital Region (NCR)","city":"Makati City","brgy":"Ecology village"},{"id":31451,"zip":1219,"lat":14.54307,"lng":121.03638,"region":"National Capital Region (NCR)","city":"Makati City","brgy":"Forbes Park North"},{"id":31452,"zip":1220,"lat":14.55,"lng":121.03333,"region":"National Capital Region (NCR)","city":"Makati City","brgy":"Forbes Park South"},{"id":31453,"zip":1202,"lat":14.55473,"lng":121.02445,"region":"National Capital Region (NCR)","city":"Makati City","brgy":"Fort Bonifacio Naval Station"},{"id":31454,"zip":1228,"lat":14.55214,"lng":121.02101,"region":"National Capital Region (NCR)","city":"Makati City","brgy":"Greenbelt"},{"id":31455,"zip":1212,"lat":14.56283,"lng":121.04713,"region":"National Capital Region (NCR)","city":"Makati City","brgy":"Guadalupe Nuevo"},{"id":31456,"zip":1211,"lat":14.56442,"lng":121.04068,"region":"National Capital Region (NCR)","city":"Makati City","brgy":"Guadalupe Viejo"},{"id":31457,"zip":1206,"lat":14.5765,"lng":121.01559,"region":"National Capital Region (NCR)","city":"Makati City","brgy":"Kasilawan"},{"id":31458,"zip":1204,"lat":14.5685,"lng":121.00842,"region":"National Capital Region (NCR)","city":"Makati City","brgy":"La Paz"},{"id":31459,"zip":1229,"lat":14.57022,"lng":121.02186,"region":"National Capital Region (NCR)","city":"Makati City","brgy":"Legaspi village"},{"id":31460,"zip":1232,"lat":14.53416,"lng":121.01774,"region":"National Capital Region (NCR)","city":"Makati City","brgy":"Magallanes village"},{"id":31461,"zip":1216,"lat":14.55473,"lng":121.02445,"region":"National Capital Region (NCR)","city":"Makati City","brgy":"Malapad na Bato"},{"id":31462,"zip":1207,"lat":14.5707,"lng":121.01989,"region":"National Capital Region (NCR)","city":"Makati City","brgy":"Olympia"},{"id":31463,"zip":1235,"lat":14.55953,"lng":121.0034,"region":"National Capital Region (NCR)","city":"Makati City","brgy":"Palanan"},{"id":31464,"zip":1226,"lat":14.55812,"lng":121.02563,"region":"National Capital Region (NCR)","city":"Makati City","brgy":"Paseo de Roxas"},{"id":31465,"zip":1231,"lat":14.56054,"lng":121.01144,"region":"National Capital Region (NCR)","city":"Makati City","brgy":"Pasong Tamo"},{"id":31466,"zip":1218,"lat":14.5438,"lng":121.05788,"region":"National Capital Region (NCR)","city":"Makati City","brgy":"Pembo"},{"id":31467,"zip":1213,"lat":14.56,"lng":121.045,"region":"National Capital Region (NCR)","city":"Makati City","brgy":"Pinagkaisahan"},{"id":31468,"zip":1230,"lat":14.5531,"lng":121.01201,"region":"National Capital Region (NCR)","city":"Makati City","brgy":"Pio del Pilar"},{"id":31469,"zip":1213,"lat":14.55691,"lng":121.04692,"region":"National Capital Region (NCR)","city":"Makati City","brgy":"Pitogo"},{"id":31470,"zip":1210,"lat":14.56568,"lng":121.03208,"region":"National Capital Region (NCR)","city":"Makati City","brgy":"Poblacion"},{"id":31471,"zip":1200,"lat":14.4321,"lng":120.9992,"region":"National Capital Region (NCR)","city":"Makati City","brgy":"Post Proper Northside"},{"id":31472,"zip":1200,"lat":14.4321,"lng":120.9992,"region":"National Capital Region (NCR)","city":"Makati City","brgy":"Post Proper Southside"},{"id":31473,"zip":1208,"lat":14.53821,"lng":121.06074,"region":"National Capital Region (NCR)","city":"Makati City","brgy":"Rizal village"},{"id":31474,"zip":1227,"lat":14.55542,"lng":121.01563,"region":"National Capital Region (NCR)","city":"Makati City","brgy":"Salcedo village"},{"id":31475,"zip":1203,"lat":14.56387,"lng":121.00914,"region":"National Capital Region (NCR)","city":"Makati City","brgy":"San Antonio village"},{"id":31476,"zip":1234,"lat":14.55394,"lng":121.00627,"region":"National Capital Region (NCR)","city":"Makati City","brgy":"San Isidro"},{"id":31477,"zip":1223,"lat":14.55076,"lng":121.01918,"region":"National Capital Region (NCR)","city":"Makati City","brgy":"San Lorenzo village"},{"id":31478,"zip":1208,"lat":14.59701,"lng":120.9948,"region":"National Capital Region (NCR)","city":"Makati City","brgy":"San Miguel village"},{"id":31479,"zip":1205,"lat":14.56745,"lng":121.01559,"region":"National Capital Region (NCR)","city":"Makati City","brgy":"Santa Cruz"},{"id":31480,"zip":1208,"lat":14.56752,"lng":121.02999,"region":"National Capital Region (NCR)","city":"Makati City","brgy":"Santiago village"},{"id":31481,"zip":1204,"lat":14.57087,"lng":121.00986,"region":"National Capital Region (NCR)","city":"Makati City","brgy":"Singkamas"},{"id":31482,"zip":1214,"lat":14.55874,"lng":121.04856,"region":"National Capital Region (NCR)","city":"Makati City","brgy":"South Cembo"},{"id":31483,"zip":1204,"lat":14.57154,"lng":121.01416,"region":"National Capital Region (NCR)","city":"Makati City","brgy":"Tejeros"},{"id":31484,"zip":1225,"lat":14.55576,"lng":121.02921,"region":"National Capital Region (NCR)","city":"Makati City","brgy":"Urdaneta village"},{"id":31485,"zip":1208,"lat":14.57136,"lng":121.02419,"region":"National Capital Region (NCR)","city":"Makati City","brgy":"Valenzuela"},{"id":31486,"zip":1215,"lat":14.5619,"lng":121.05788,"region":"National Capital Region (NCR)","city":"Makati City","brgy":"West Rembo"},{"id":31487,"zip":1474,"lat":14.66885,"lng":120.96827,"region":"National Capital Region (NCR)","city":"Malabon City","brgy":"Acacia"},{"id":31488,"zip":1476,"lat":14.6591,"lng":120.9772,"region":"National Capital Region (NCR)","city":"Malabon City","brgy":"Araneta"},{"id":31489,"zip":1470,"lat":14.6629,"lng":120.9562,"region":"National Capital Region (NCR)","city":"Malabon City","brgy":"Baritan"},{"id":31490,"zip":1470,"lat":14.41295,"lng":120.93454,"region":"National Capital Region (NCR)","city":"Malabon City","brgy":"Bayan-bayanan"},{"id":31491,"zip":1470,"lat":14.66936,"lng":120.96038,"region":"National Capital Region (NCR)","city":"Malabon City","brgy":"Catmon"},{"id":31492,"zip":1470,"lat":14.66105,"lng":120.98957,"region":"National Capital Region (NCR)","city":"Malabon City","brgy":"Concepcion"},{"id":31493,"zip":1480,"lat":14.68076,"lng":120.94521,"region":"National Capital Region (NCR)","city":"Malabon City","brgy":"Dampalit"},{"id":31494,"zip":1471,"lat":14.63708,"lng":121.01447,"region":"National Capital Region (NCR)","city":"Malabon City","brgy":"Flores"},{"id":31495,"zip":1470,"lat":14.66736,"lng":120.97813,"region":"National Capital Region (NCR)","city":"Malabon City","brgy":"Hulong Duhat"},{"id":31496,"zip":1470,"lat":14.6629,"lng":120.9562,"region":"National Capital Region (NCR)","city":"Malabon City","brgy":"Ibaba"},{"id":31497,"zip":1472,"lat":14.65383,"lng":120.96038,"region":"National Capital Region (NCR)","city":"Malabon City","brgy":"Longos"},{"id":31498,"zip":1477,"lat":14.67755,"lng":120.95752,"region":"National Capital Region (NCR)","city":"Malabon City","brgy":"Maysilo"},{"id":31499,"zip":1479,"lat":14.67502,"lng":120.9504,"region":"National Capital Region (NCR)","city":"Malabon City","brgy":"Muzon"},{"id":31500,"zip":1470,"lat":14.66773,"lng":120.95534,"region":"National Capital Region (NCR)","city":"Malabon City","brgy":"Niugan"},{"id":31501,"zip":1470,"lat":14.68763,"lng":120.95523,"region":"National Capital Region (NCR)","city":"Malabon City","brgy":"Panghulo"},{"id":31502,"zip":1475,"lat":14.669,"lng":120.98046,"region":"National Capital Region (NCR)","city":"Malabon City","brgy":"Potrero"},{"id":31503,"zip":1470,"lat":14.61288,"lng":121.0055,"region":"National Capital Region (NCR)","city":"Malabon City","brgy":"San Agustin"},{"id":31504,"zip":1478,"lat":14.68419,"lng":120.95929,"region":"National Capital Region (NCR)","city":"Malabon City","brgy":"Santolan"},{"id":31505,"zip":1470,"lat":14.6629,"lng":120.9562,"region":"National Capital Region (NCR)","city":"Malabon City","brgy":"Ta"},{"id":31506,"zip":1470,"lat":14.67328,"lng":120.96899,"region":"National Capital Region (NCR)","city":"Malabon City","brgy":"Tinajeros"},{"id":31507,"zip":1473,"lat":14.65992,"lng":120.95591,"region":"National Capital Region (NCR)","city":"Malabon City","brgy":"Tonsuya"},{"id":31508,"zip":1470,"lat":14.66617,"lng":120.97329,"region":"National Capital Region (NCR)","city":"Malabon City","brgy":"Tugatog"},{"id":31509,"zip":1550,"lat":14.58553,"lng":121.03781,"region":"National Capital Region (NCR)","city":"Mandaluyong City","brgy":"Addition Hills"},{"id":31510,"zip":1550,"lat":14.591,"lng":121.03136,"region":"National Capital Region (NCR)","city":"Mandaluyong City","brgy":"Bagong Silang"},{"id":31511,"zip":1550,"lat":14.57222,"lng":121.03817,"region":"National Capital Region (NCR)","city":"Mandaluyong City","brgy":"Barangka Drive"},{"id":31512,"zip":1550,"lat":14.56926,"lng":121.03853,"region":"National Capital Region (NCR)","city":"Mandaluyong City","brgy":"Barangka Ibaba"},{"id":31513,"zip":1550,"lat":14.57134,"lng":121.04641,"region":"National Capital Region (NCR)","city":"Mandaluyong City","brgy":"Barangka Ilaya"},{"id":31514,"zip":1550,"lat":14.57013,"lng":121.04139,"region":"National Capital Region (NCR)","city":"Mandaluyong City","brgy":"Barangka Itaas"},{"id":31515,"zip":1550,"lat":14.56969,"lng":121.05107,"region":"National Capital Region (NCR)","city":"Mandaluyong City","brgy":"Buayang Bato"},{"id":31516,"zip":1550,"lat":14.58978,"lng":121.0276,"region":"National Capital Region (NCR)","city":"Mandaluyong City","brgy":"Burol"},{"id":31517,"zip":1550,"lat":14.59401,"lng":121.02849,"region":"National Capital Region (NCR)","city":"Mandaluyong City","brgy":"Daang Bakal"},{"id":31518,"zip":1554,"lat":14.57351,"lng":121.0481,"region":"National Capital Region (NCR)","city":"Mandaluyong City","brgy":"East EDSA"},{"id":31519,"zip":1556,"lat":14.60345,"lng":121.04458,"region":"National Capital Region (NCR)","city":"Mandaluyong City","brgy":"Greenhills South"},{"id":31520,"zip":1550,"lat":14.58842,"lng":121.03136,"region":"National Capital Region (NCR)","city":"Mandaluyong City","brgy":"Hagdang Bato Itaas"},{"id":31521,"zip":1550,"lat":14.58929,"lng":121.03423,"region":"National Capital Region (NCR)","city":"Mandaluyong City","brgy":"Hagdang Bato Libis"},{"id":31522,"zip":1550,"lat":14.59126,"lng":121.02742,"region":"National Capital Region (NCR)","city":"Mandaluyong City","brgy":"Harapin Ang Bukas"},{"id":31523,"zip":1550,"lat":14.57826,"lng":121.05214,"region":"National Capital Region (NCR)","city":"Mandaluyong City","brgy":"Highway Hills"},{"id":31524,"zip":1550,"lat":14.5716,"lng":121.03136,"region":"National Capital Region (NCR)","city":"Mandaluyong City","brgy":"Hulo"},{"id":31525,"zip":1550,"lat":14.58471,"lng":121.02133,"region":"National Capital Region (NCR)","city":"Mandaluyong City","brgy":"Mabini-J. Rizal"},{"id":31526,"zip":1550,"lat":14.57489,"lng":121.04426,"region":"National Capital Region (NCR)","city":"Mandaluyong City","brgy":"Malamig"},{"id":31527,"zip":1550,"lat":14.5821,"lng":121.04354,"region":"National Capital Region (NCR)","city":"Mandaluyong City","brgy":"Mauway"},{"id":31528,"zip":1550,"lat":14.58029,"lng":121.02061,"region":"National Capital Region (NCR)","city":"Mandaluyong City","brgy":"Namayan"},{"id":31529,"zip":1553,"lat":14.58182,"lng":121.04317,"region":"National Capital Region (NCR)","city":"Mandaluyong City","brgy":"National Center for Mental Health"},{"id":31530,"zip":1550,"lat":14.5772,"lng":121.0379,"region":"National Capital Region (NCR)","city":"Mandaluyong City","brgy":"New Za"},{"id":31531,"zip":1550,"lat":14.5772,"lng":121.0379,"region":"National Capital Region (NCR)","city":"Mandaluyong City","brgy":"Old Za"},{"id":31532,"zip":1550,"lat":14.59055,"lng":121.02563,"region":"National Capital Region (NCR)","city":"Mandaluyong City","brgy":"Pag-asa"},{"id":31533,"zip":1550,"lat":14.57561,"lng":121.03494,"region":"National Capital Region (NCR)","city":"Mandaluyong City","brgy":"Plainview"},{"id":31534,"zip":1550,"lat":14.58824,"lng":121.04139,"region":"National Capital Region (NCR)","city":"Mandaluyong City","brgy":"Pleasant Hills"},{"id":31535,"zip":1550,"lat":14.58646,"lng":121.02706,"region":"National Capital Region (NCR)","city":"Mandaluyong City","brgy":"Poblacion"},{"id":31536,"zip":1550,"lat":14.5817,"lng":121.02975,"region":"National Capital Region (NCR)","city":"Mandaluyong City","brgy":"San Jose"},{"id":31537,"zip":1552,"lat":14.58857,"lng":121.0432,"region":"National Capital Region (NCR)","city":"Mandaluyong City","brgy":"Shaw Boulevard"},{"id":31538,"zip":1551,"lat":14.57653,"lng":121.02419,"region":"National Capital Region (NCR)","city":"Mandaluyong City","brgy":"Vergara"},{"id":31539,"zip":1555,"lat":14.59227,"lng":121.05358,"region":"National Capital Region (NCR)","city":"Mandaluyong City","brgy":"Wack Wack"},{"id":31540,"zip":1550,"lat":14.59227,"lng":121.05358,"region":"National Capital Region (NCR)","city":"Mandaluyong City","brgy":"Wack-wack Greenhills"},{"id":31541,"zip":1006,"lat":14.60119,"lng":120.97501,"region":"National Capital Region (NCR)","city":"Manila","brgy":"Binondo"},{"id":31542,"zip":1000,"lat":14.59129,"lng":121.00369,"region":"National Capital Region (NCR)","city":"Manila","brgy":"Central Manila"},{"id":31543,"zip":1002,"lat":14.59083,"lng":120.975,"region":"National Capital Region (NCR)","city":"Manila","brgy":"Intramuros"},{"id":31544,"zip":1004,"lat":14.5702,"lng":120.99159,"region":"National Capital Region (NCR)","city":"Manila","brgy":"Malate"},{"id":31545,"zip":1007,"lat":14.58545,"lng":120.99385,"region":"National Capital Region (NCR)","city":"Manila","brgy":"Paco"},{"id":31546,"zip":1011,"lat":14.58961,"lng":121.003,"region":"National Capital Region (NCR)","city":"Manila","brgy":"Pandacan"},{"id":31547,"zip":1018,"lat":14.59086,"lng":120.96612,"region":"National Capital Region (NCR)","city":"Manila","brgy":"Port Area South"},{"id":31548,"zip":1001,"lat":14.6,"lng":120.983,"region":"National Capital Region (NCR)","city":"Manila","brgy":"Quiapo"},{"id":31549,"zip":1008,"lat":14.61103,"lng":120.99624,"region":"National Capital Region (NCR)","city":"Manila","brgy":"Sampaloc East"},{"id":31550,"zip":1015,"lat":14.61103,"lng":120.99624,"region":"National Capital Region (NCR)","city":"Manila","brgy":"Sampaloc West"},{"id":31551,"zip":1017,"lat":14.57246,"lng":121.0034,"region":"National Capital Region (NCR)","city":"Manila","brgy":"San Andres"},{"id":31552,"zip":1005,"lat":14.59701,"lng":120.9948,"region":"National Capital Region (NCR)","city":"Manila","brgy":"San Miguel"},{"id":31553,"zip":1010,"lat":14.5982,"lng":120.96899,"region":"National Capital Region (NCR)","city":"Manila","brgy":"San Nicolas"},{"id":31554,"zip":1009,"lat":14.58,"lng":121.012,"region":"National Capital Region (NCR)","city":"Manila","brgy":"Santa Ana"},{"id":31555,"zip":1014,"lat":14.61789,"lng":120.98476,"region":"National Capital Region (NCR)","city":"Manila","brgy":"Santa Cruz North"},{"id":31556,"zip":1003,"lat":14.61789,"lng":120.98476,"region":"National Capital Region (NCR)","city":"Manila","brgy":"Santa Cruz South"},{"id":31557,"zip":1016,"lat":14.59763,"lng":121.01761,"region":"National Capital Region (NCR)","city":"Manila","brgy":"Santa Mesa"},{"id":31558,"zip":1013,"lat":14.62057,"lng":120.96597,"region":"National Capital Region (NCR)","city":"Manila","brgy":"Tondo North"},{"id":31559,"zip":1012,"lat":14.62057,"lng":120.96597,"region":"National Capital Region (NCR)","city":"Manila","brgy":"Tondo South"},{"id":31560,"zip":1820,"lat":14.62794,"lng":121.16245,"region":"National Capital Region (NCR)","city":"Marikina City","brgy":"Bagong Nayon"},{"id":31561,"zip":1803,"lat":14.63828,"lng":121.08367,"region":"National Capital Region (NCR)","city":"Marikina City","brgy":"Barangka"},{"id":31562,"zip":1801,"lat":14.62492,"lng":121.08653,"region":"National Capital Region (NCR)","city":"Marikina City","brgy":"Calumpang"},{"id":31563,"zip":1811,"lat":14.64054,"lng":121.12092,"region":"National Capital Region (NCR)","city":"Marikina City","brgy":"Concepcion Dos"},{"id":31564,"zip":1807,"lat":14.64674,"lng":121.10516,"region":"National Capital Region (NCR)","city":"Marikina City","brgy":"Concepcion Uno"},{"id":31565,"zip":1820,"lat":14.63349,"lng":121.1424,"region":"National Capital Region (NCR)","city":"Marikina City","brgy":"Cupang"},{"id":31566,"zip":1800,"lat":14.65888,"lng":121.12808,"region":"National Capital Region (NCR)","city":"Marikina City","brgy":"Fortune"},{"id":31567,"zip":1802,"lat":14.6236,"lng":121.07794,"region":"National Capital Region (NCR)","city":"Marikina City","brgy":"Industrial Valley"},{"id":31568,"zip":1804,"lat":14.6294,"lng":121.0899,"region":"National Capital Region (NCR)","city":"Marikina City","brgy":"Jesus de la Pena"},{"id":31569,"zip":1805,"lat":14.64844,"lng":121.0937,"region":"National Capital Region (NCR)","city":"Marikina City","brgy":"Malanday"},{"id":31570,"zip":1820,"lat":14.63,"lng":121.12,"region":"National Capital Region (NCR)","city":"Marikina City","brgy":"Mambagat"},{"id":31571,"zip":1810,"lat":14.66877,"lng":121.11403,"region":"National Capital Region (NCR)","city":"Marikina City","brgy":"Marikina Heights (Concepcion)"},{"id":31572,"zip":1820,"lat":14.62437,"lng":121.11662,"region":"National Capital Region (NCR)","city":"Marikina City","brgy":"Mayamot"},{"id":31573,"zip":1808,"lat":14.66852,"lng":121.10659,"region":"National Capital Region (NCR)","city":"Marikina City","brgy":"Nangka"},{"id":31574,"zip":1806,"lat":14.6369,"lng":121.0927,"region":"National Capital Region (NCR)","city":"Marikina City","brgy":"Northern Marikina River"},{"id":31575,"zip":1809,"lat":14.65991,"lng":121.11232,"region":"National Capital Region (NCR)","city":"Marikina City","brgy":"Parang"},{"id":31576,"zip":1801,"lat":14.6269,"lng":121.09943,"region":"National Capital Region (NCR)","city":"Marikina City","brgy":"San Roque"},{"id":31577,"zip":1800,"lat":14.6329,"lng":121.0988,"region":"National Capital Region (NCR)","city":"Marikina City","brgy":"Santa Elena (Pob.)"},{"id":31578,"zip":1800,"lat":14.63304,"lng":121.07956,"region":"National Capital Region (NCR)","city":"Marikina City","brgy":"Santo Nino"},{"id":31579,"zip":1803,"lat":14.6328,"lng":121.0867,"region":"National Capital Region (NCR)","city":"Marikina City","brgy":"Tanong"},{"id":31580,"zip":1800,"lat":14.65878,"lng":121.0937,"region":"National Capital Region (NCR)","city":"Marikina City","brgy":"Tumana"},{"id":31581,"zip":1806,"lat":14.6369,"lng":121.0927,"region":"National Capital Region (NCR)","city":"Marikina City","brgy":"Western Marikina River"},{"id":31582,"zip":1780,"lat":14.4182,"lng":121.04211,"region":"National Capital Region (NCR)","city":"Muntinlupa City","brgy":"Alabang"},{"id":31583,"zip":1772,"lat":14.40853,"lng":121.04641,"region":"National Capital Region (NCR)","city":"Muntinlupa City","brgy":"Bayanan"},{"id":31584,"zip":1771,"lat":14.44353,"lng":121.04999,"region":"National Capital Region (NCR)","city":"Muntinlupa City","brgy":"Buli"},{"id":31585,"zip":1771,"lat":14.43369,"lng":121.04211,"region":"National Capital Region (NCR)","city":"Muntinlupa City","brgy":"Cupang"},{"id":31586,"zip":1781,"lat":14.3964,"lng":121.0454,"region":"National Capital Region (NCR)","city":"Muntinlupa City","brgy":"Filinvest Corp. City"},{"id":31587,"zip":1780,"lat":14.40519,"lng":121.02491,"region":"National Capital Region (NCR)","city":"Muntinlupa City","brgy":"New Alabang village"},{"id":31588,"zip":1775,"lat":14.47235,"lng":120.99791,"region":"National Capital Region (NCR)","city":"Muntinlupa City","brgy":"Pearl Heights"},{"id":31589,"zip":1777,"lat":14.40946,"lng":121.04379,"region":"National Capital Region (NCR)","city":"Muntinlupa City","brgy":"Pleasant village"},{"id":31590,"zip":1776,"lat":14.37937,"lng":121.02491,"region":"National Capital Region (NCR)","city":"Muntinlupa City","brgy":"Poblacion"},{"id":31591,"zip":1772,"lat":14.39837,"lng":121.03638,"region":"National Capital Region (NCR)","city":"Muntinlupa City","brgy":"Putatan"},{"id":31592,"zip":1770,"lat":14.45461,"lng":121.04928,"region":"National Capital Region (NCR)","city":"Muntinlupa City","brgy":"Sucat"},{"id":31593,"zip":1774,"lat":14.38002,"lng":121.0399,"region":"National Capital Region (NCR)","city":"Muntinlupa City","brgy":"Susana Heights"},{"id":31594,"zip":1773,"lat":14.37255,"lng":121.03638,"region":"National Capital Region (NCR)","city":"Muntinlupa City","brgy":"Tunasan"},{"id":31595,"zip":1409,"lat":14.65125,"lng":120.94927,"region":"National Capital Region (NCR)","city":"Navotas City","brgy":"Bagumbayan North"},{"id":31596,"zip":1409,"lat":14.65828,"lng":120.94833,"region":"National Capital Region (NCR)","city":"Navotas City","brgy":"Bagumbayan South"},{"id":31597,"zip":1409,"lat":14.64786,"lng":120.9525,"region":"National Capital Region (NCR)","city":"Navotas City","brgy":"Bangculasi"},{"id":31598,"zip":1409,"lat":14.66671,"lng":120.94317,"region":"National Capital Region (NCR)","city":"Navotas City","brgy":"Daanghari"},{"id":31599,"zip":1411,"lat":14.63,"lng":120.96,"region":"National Capital Region (NCR)","city":"Navotas City","brgy":"Fish Market"},{"id":31600,"zip":1412,"lat":14.6344,"lng":120.9674,"region":"National Capital Region (NCR)","city":"Navotas City","brgy":"Isla de Cocomo"},{"id":31601,"zip":1413,"lat":14.64426,"lng":120.9576,"region":"National Capital Region (NCR)","city":"Navotas City","brgy":"Kapitbahayan East"},{"id":31602,"zip":1485,"lat":14.64484,"lng":120.95697,"region":"National Capital Region (NCR)","city":"Navotas City","brgy":"Navotas East"},{"id":31603,"zip":1485,"lat":14.64484,"lng":120.95697,"region":"National Capital Region (NCR)","city":"Navotas City","brgy":"Navotas West"},{"id":31604,"zip":1409,"lat":14.64335,"lng":120.9568,"region":"National Capital Region (NCR)","city":"Navotas City","brgy":"North Bay Blvd North"},{"id":31605,"zip":1409,"lat":14.64335,"lng":120.9568,"region":"National Capital Region (NCR)","city":"Navotas City","brgy":"North Bay Blvd South"},{"id":31606,"zip":1409,"lat":14.6615,"lng":120.9432,"region":"National Capital Region (NCR)","city":"Navotas City","brgy":"San Jose (Pob.)"},{"id":31607,"zip":1409,"lat":14.63745,"lng":120.96612,"region":"National Capital Region (NCR)","city":"Navotas City","brgy":"San Rafael village"},{"id":31608,"zip":1409,"lat":14.67069,"lng":120.93815,"region":"National Capital Region (NCR)","city":"Navotas City","brgy":"San Roque"},{"id":31609,"zip":1409,"lat":14.65647,"lng":120.94676,"region":"National Capital Region (NCR)","city":"Navotas City","brgy":"Sipac-Almacen"},{"id":31610,"zip":1489,"lat":14.67316,"lng":120.93456,"region":"National Capital Region (NCR)","city":"Navotas City","brgy":"Tangos"},{"id":31611,"zip":1490,"lat":14.70051,"lng":120.91591,"region":"National Capital Region (NCR)","city":"Navotas City","brgy":"Tanza"},{"id":31612,"zip":1714,"lat":14.47931,"lng":121.01982,"region":"National Capital Region (NCR)","city":"Paranaque City","brgy":"Aeropark"},{"id":31613,"zip":1718,"lat":14.45927,"lng":121.04527,"region":"National Capital Region (NCR)","city":"Paranaque City","brgy":"B. F. Homes Dos"},{"id":31614,"zip":1720,"lat":14.47064,"lng":121.02225,"region":"National Capital Region (NCR)","city":"Paranaque City","brgy":"B. F. Homes Uno"},{"id":31615,"zip":1702,"lat":14.52975,"lng":120.9948,"region":"National Capital Region (NCR)","city":"Paranaque City","brgy":"Baclaran"},{"id":31616,"zip":1711,"lat":14.47931,"lng":121.01982,"region":"National Capital Region (NCR)","city":"Paranaque City","brgy":"Better Living"},{"id":31617,"zip":1700,"lat":14.48451,"lng":121.02917,"region":"National Capital Region (NCR)","city":"Paranaque City","brgy":"Don Bosco"},{"id":31618,"zip":1700,"lat":14.50923,"lng":120.98476,"region":"National Capital Region (NCR)","city":"Paranaque City","brgy":"Don Galo"},{"id":31619,"zip":1710,"lat":14.43137,"lng":121.01661,"region":"National Capital Region (NCR)","city":"Paranaque City","brgy":"Executive Heights"},{"id":31620,"zip":1719,"lat":14.47931,"lng":121.01982,"region":"National Capital Region (NCR)","city":"Paranaque City","brgy":"Ireneville 1"},{"id":31621,"zip":1714,"lat":14.47931,"lng":121.01982,"region":"National Capital Region (NCR)","city":"Paranaque City","brgy":"Ireneville 2"},{"id":31622,"zip":1719,"lat":14.59653,"lng":121.03036,"region":"National Capital Region (NCR)","city":"Paranaque City","brgy":"Ireneville 3"},{"id":31623,"zip":1700,"lat":14.49914,"lng":120.99193,"region":"National Capital Region (NCR)","city":"Paranaque City","brgy":"La Huerta"},{"id":31624,"zip":1717,"lat":14.47931,"lng":121.01982,"region":"National Capital Region (NCR)","city":"Paranaque City","brgy":"Manila Memorial Park"},{"id":31625,"zip":1700,"lat":14.47639,"lng":121.04021,"region":"National Capital Region (NCR)","city":"Paranaque City","brgy":"Marcelo Green village"},{"id":31626,"zip":1703,"lat":14.47931,"lng":121.01982,"region":"National Capital Region (NCR)","city":"Paranaque City","brgy":"Marina"},{"id":31627,"zip":1719,"lat":14.46558,"lng":121.03488,"region":"National Capital Region (NCR)","city":"Paranaque City","brgy":"Maywood Village 1"},{"id":31628,"zip":1716,"lat":14.46558,"lng":121.03488,"region":"National Capital Region (NCR)","city":"Paranaque City","brgy":"Maywood Village 2"},{"id":31629,"zip":1709,"lat":14.50312,"lng":121.02369,"region":"National Capital Region (NCR)","city":"Paranaque City","brgy":"Merville Park"},{"id":31630,"zip":1712,"lat":14.47931,"lng":121.01982,"region":"National Capital Region (NCR)","city":"Paranaque City","brgy":"Miramar"},{"id":31631,"zip":1709,"lat":14.48604,"lng":121.00197,"region":"National Capital Region (NCR)","city":"Paranaque City","brgy":"Moonwalk"},{"id":31632,"zip":1708,"lat":14.49615,"lng":121.0002,"region":"National Capital Region (NCR)","city":"Paranaque City","brgy":"Multinational Village"},{"id":31633,"zip":1705,"lat":14.5096,"lng":121.01251,"region":"National Capital Region (NCR)","city":"Paranaque City","brgy":"Ninoy Aquino International Airport"},{"id":31634,"zip":1706,"lat":14.49332,"lng":121.03005,"region":"National Capital Region (NCR)","city":"Paranaque City","brgy":"Pulo"},{"id":31635,"zip":1707,"lat":14.46253,"lng":121.03924,"region":"National Capital Region (NCR)","city":"Paranaque City","brgy":"San Antonio Valley"},{"id":31636,"zip":1715,"lat":14.47931,"lng":121.01982,"region":"National Capital Region (NCR)","city":"Paranaque City","brgy":"San Antonio Valley 1"},{"id":31637,"zip":1700,"lat":14.48771,"lng":120.9905,"region":"National Capital Region (NCR)","city":"Paranaque City","brgy":"San Dionisio"},{"id":31638,"zip":1700,"lat":14.46778,"lng":121.01201,"region":"National Capital Region (NCR)","city":"Paranaque City","brgy":"San Isidro"},{"id":31639,"zip":1700,"lat":14.49679,"lng":121.04354,"region":"National Capital Region (NCR)","city":"Paranaque City","brgy":"San Martin de Porres"},{"id":31640,"zip":1704,"lat":14.50606,"lng":120.99767,"region":"National Capital Region (NCR)","city":"Paranaque City","brgy":"Santo Nino"},{"id":31641,"zip":1709,"lat":14.44261,"lng":121.00084,"region":"National Capital Region (NCR)","city":"Paranaque City","brgy":"South Admiral Village"},{"id":31642,"zip":1700,"lat":14.49246,"lng":121.03781,"region":"National Capital Region (NCR)","city":"Paranaque City","brgy":"Sun Valley"},{"id":31643,"zip":1701,"lat":14.51874,"lng":120.9905,"region":"National Capital Region (NCR)","city":"Paranaque City","brgy":"Tambo"},{"id":31644,"zip":1713,"lat":14.47931,"lng":121.01982,"region":"National Capital Region (NCR)","city":"Paranaque City","brgy":"United Paranaque"},{"id":31645,"zip":1700,"lat":14.50589,"lng":121.00771,"region":"National Capital Region (NCR)","city":"Paranaque City","brgy":"Vitalez"},{"id":31646,"zip":1300,"lat":14.52515,"lng":121.01211,"region":"National Capital Region (NCR)","city":"Pasay City","brgy":"Barangay 1"},{"id":31647,"zip":1300,"lat":14.52515,"lng":121.01211,"region":"National Capital Region (NCR)","city":"Pasay City","brgy":"Barangay 10"},{"id":31648,"zip":1300,"lat":14.52515,"lng":121.01211,"region":"National Capital Region (NCR)","city":"Pasay City","brgy":"Barangay 100"},{"id":31649,"zip":1300,"lat":14.52515,"lng":121.01211,"region":"National Capital Region (NCR)","city":"Pasay City","brgy":"Barangay 101"},{"id":31650,"zip":1300,"lat":14.52515,"lng":121.01211,"region":"National Capital Region (NCR)","city":"Pasay City","brgy":"Barangay 102"},{"id":31651,"zip":1300,"lat":14.52515,"lng":121.01211,"region":"National Capital Region (NCR)","city":"Pasay City","brgy":"Barangay 103"},{"id":31652,"zip":1300,"lat":14.52515,"lng":121.01211,"region":"National Capital Region (NCR)","city":"Pasay City","brgy":"Barangay 104"},{"id":31653,"zip":1300,"lat":14.52515,"lng":121.01211,"region":"National Capital Region (NCR)","city":"Pasay City","brgy":"Barangay 105"},{"id":31654,"zip":1300,"lat":14.52515,"lng":121.01211,"region":"National Capital Region (NCR)","city":"Pasay City","brgy":"Barangay 106"},{"id":31655,"zip":1300,"lat":14.52515,"lng":121.01211,"region":"National Capital Region (NCR)","city":"Pasay City","brgy":"Barangay 107"},{"id":31656,"zip":1300,"lat":14.52515,"lng":121.01211,"region":"National Capital Region (NCR)","city":"Pasay City","brgy":"Barangay 108"},{"id":31657,"zip":1300,"lat":14.52515,"lng":121.01211,"region":"National Capital Region (NCR)","city":"Pasay City","brgy":"Barangay 109"},{"id":31658,"zip":1300,"lat":14.52515,"lng":121.01211,"region":"National Capital Region (NCR)","city":"Pasay City","brgy":"Barangay 11"},{"id":31659,"zip":1300,"lat":14.52515,"lng":121.01211,"region":"National Capital Region (NCR)","city":"Pasay City","brgy":"Barangay 110"},{"id":31660,"zip":1300,"lat":14.52515,"lng":121.01211,"region":"National Capital Region (NCR)","city":"Pasay City","brgy":"Barangay 111"},{"id":31661,"zip":1300,"lat":14.52515,"lng":121.01211,"region":"National Capital Region (NCR)","city":"Pasay City","brgy":"Barangay 112"},{"id":31662,"zip":1300,"lat":14.52515,"lng":121.01211,"region":"National Capital Region (NCR)","city":"Pasay City","brgy":"Barangay 113"},{"id":31663,"zip":1300,"lat":14.52515,"lng":121.01211,"region":"National Capital Region (NCR)","city":"Pasay City","brgy":"Barangay 114"},{"id":31664,"zip":1300,"lat":14.52515,"lng":121.01211,"region":"National Capital Region (NCR)","city":"Pasay City","brgy":"Barangay 115"},{"id":31665,"zip":1300,"lat":14.52515,"lng":121.01211,"region":"National Capital Region (NCR)","city":"Pasay City","brgy":"Barangay 116"},{"id":31666,"zip":1300,"lat":14.52515,"lng":121.01211,"region":"National Capital Region (NCR)","city":"Pasay City","brgy":"Barangay 117"},{"id":31667,"zip":1300,"lat":14.52515,"lng":121.01211,"region":"National Capital Region (NCR)","city":"Pasay City","brgy":"Barangay 118"},{"id":31668,"zip":1300,"lat":14.52515,"lng":121.01211,"region":"National Capital Region (NCR)","city":"Pasay City","brgy":"Barangay 119"},{"id":31669,"zip":1300,"lat":14.52515,"lng":121.01211,"region":"National Capital Region (NCR)","city":"Pasay City","brgy":"Barangay 12"},{"id":31670,"zip":1300,"lat":14.52515,"lng":121.01211,"region":"National Capital Region (NCR)","city":"Pasay City","brgy":"Barangay 120"},{"id":31671,"zip":1300,"lat":14.52515,"lng":121.01211,"region":"National Capital Region (NCR)","city":"Pasay City","brgy":"Barangay 121"},{"id":31672,"zip":1300,"lat":14.52515,"lng":121.01211,"region":"National Capital Region (NCR)","city":"Pasay City","brgy":"Barangay 122"},{"id":31673,"zip":1300,"lat":14.52515,"lng":121.01211,"region":"National Capital Region (NCR)","city":"Pasay City","brgy":"Barangay 123"},{"id":31674,"zip":1300,"lat":14.52515,"lng":121.01211,"region":"National Capital Region (NCR)","city":"Pasay City","brgy":"Barangay 124"},{"id":31675,"zip":1300,"lat":14.52515,"lng":121.01211,"region":"National Capital Region (NCR)","city":"Pasay City","brgy":"Barangay 125"},{"id":31676,"zip":1300,"lat":14.52515,"lng":121.01211,"region":"National Capital Region (NCR)","city":"Pasay City","brgy":"Barangay 126"},{"id":31677,"zip":1300,"lat":14.52515,"lng":121.01211,"region":"National Capital Region (NCR)","city":"Pasay City","brgy":"Barangay 127"},{"id":31678,"zip":1300,"lat":14.52515,"lng":121.01211,"region":"National Capital Region (NCR)","city":"Pasay City","brgy":"Barangay 128"},{"id":31679,"zip":1300,"lat":14.52515,"lng":121.01211,"region":"National Capital Region (NCR)","city":"Pasay City","brgy":"Barangay 129"},{"id":31680,"zip":1300,"lat":14.52515,"lng":121.01211,"region":"National Capital Region (NCR)","city":"Pasay City","brgy":"Barangay 13"},{"id":31681,"zip":1300,"lat":14.52515,"lng":121.01211,"region":"National Capital Region (NCR)","city":"Pasay City","brgy":"Barangay 130"},{"id":31682,"zip":1300,"lat":14.52515,"lng":121.01211,"region":"National Capital Region (NCR)","city":"Pasay City","brgy":"Barangay 131"},{"id":31683,"zip":1300,"lat":14.52515,"lng":121.01211,"region":"National Capital Region (NCR)","city":"Pasay City","brgy":"Barangay 132"},{"id":31684,"zip":1300,"lat":14.52515,"lng":121.01211,"region":"National Capital Region (NCR)","city":"Pasay City","brgy":"Barangay 133"},{"id":31685,"zip":1300,"lat":14.52515,"lng":121.01211,"region":"National Capital Region (NCR)","city":"Pasay City","brgy":"Barangay 134"},{"id":31686,"zip":1300,"lat":14.52515,"lng":121.01211,"region":"National Capital Region (NCR)","city":"Pasay City","brgy":"Barangay 135"},{"id":31687,"zip":1300,"lat":14.52515,"lng":121.01211,"region":"National Capital Region (NCR)","city":"Pasay City","brgy":"Barangay 136"},{"id":31688,"zip":1300,"lat":14.52515,"lng":121.01211,"region":"National Capital Region (NCR)","city":"Pasay City","brgy":"Barangay 137"},{"id":31689,"zip":1300,"lat":14.52515,"lng":121.01211,"region":"National Capital Region (NCR)","city":"Pasay City","brgy":"Barangay 138"},{"id":31690,"zip":1300,"lat":14.52515,"lng":121.01211,"region":"National Capital Region (NCR)","city":"Pasay City","brgy":"Barangay 139"},{"id":31691,"zip":1300,"lat":14.52515,"lng":121.01211,"region":"National Capital Region (NCR)","city":"Pasay City","brgy":"Barangay 14"},{"id":31692,"zip":1300,"lat":14.52515,"lng":121.01211,"region":"National Capital Region (NCR)","city":"Pasay City","brgy":"Barangay 140"},{"id":31693,"zip":1300,"lat":14.52515,"lng":121.01211,"region":"National Capital Region (NCR)","city":"Pasay City","brgy":"Barangay 141"},{"id":31694,"zip":1300,"lat":14.52515,"lng":121.01211,"region":"National Capital Region (NCR)","city":"Pasay City","brgy":"Barangay 142"},{"id":31695,"zip":1300,"lat":14.52515,"lng":121.01211,"region":"National Capital Region (NCR)","city":"Pasay City","brgy":"Barangay 143"},{"id":31696,"zip":1300,"lat":14.52515,"lng":121.01211,"region":"National Capital Region (NCR)","city":"Pasay City","brgy":"Barangay 144"},{"id":31697,"zip":1300,"lat":14.52515,"lng":121.01211,"region":"National Capital Region (NCR)","city":"Pasay City","brgy":"Barangay 145"},{"id":31698,"zip":1300,"lat":14.52515,"lng":121.01211,"region":"National Capital Region (NCR)","city":"Pasay City","brgy":"Barangay 146"},{"id":31699,"zip":1300,"lat":14.52515,"lng":121.01211,"region":"National Capital Region (NCR)","city":"Pasay City","brgy":"Barangay 147"},{"id":31700,"zip":1300,"lat":14.52515,"lng":121.01211,"region":"National Capital Region (NCR)","city":"Pasay City","brgy":"Barangay 148"},{"id":31701,"zip":1300,"lat":14.52515,"lng":121.01211,"region":"National Capital Region (NCR)","city":"Pasay City","brgy":"Barangay 149"},{"id":31702,"zip":1300,"lat":14.52515,"lng":121.01211,"region":"National Capital Region (NCR)","city":"Pasay City","brgy":"Barangay 15"},{"id":31703,"zip":1300,"lat":14.52515,"lng":121.01211,"region":"National Capital Region (NCR)","city":"Pasay City","brgy":"Barangay 150"},{"id":31704,"zip":1300,"lat":14.52515,"lng":121.01211,"region":"National Capital Region (NCR)","city":"Pasay City","brgy":"Barangay 151"},{"id":31705,"zip":1300,"lat":14.52515,"lng":121.01211,"region":"National Capital Region (NCR)","city":"Pasay City","brgy":"Barangay 152"},{"id":31706,"zip":1300,"lat":14.52515,"lng":121.01211,"region":"National Capital Region (NCR)","city":"Pasay City","brgy":"Barangay 153"},{"id":31707,"zip":1300,"lat":14.52515,"lng":121.01211,"region":"National Capital Region (NCR)","city":"Pasay City","brgy":"Barangay 154"},{"id":31708,"zip":1300,"lat":14.52515,"lng":121.01211,"region":"National Capital Region (NCR)","city":"Pasay City","brgy":"Barangay 155"},{"id":31709,"zip":1300,"lat":14.52515,"lng":121.01211,"region":"National Capital Region (NCR)","city":"Pasay City","brgy":"Barangay 156"},{"id":31710,"zip":1300,"lat":14.52515,"lng":121.01211,"region":"National Capital Region (NCR)","city":"Pasay City","brgy":"Barangay 157"},{"id":31711,"zip":1300,"lat":14.52515,"lng":121.01211,"region":"National Capital Region (NCR)","city":"Pasay City","brgy":"Barangay 158"},{"id":31712,"zip":1300,"lat":14.52515,"lng":121.01211,"region":"National Capital Region (NCR)","city":"Pasay City","brgy":"Barangay 159"},{"id":31713,"zip":1300,"lat":14.52515,"lng":121.01211,"region":"National Capital Region (NCR)","city":"Pasay City","brgy":"Barangay 16"},{"id":31714,"zip":1300,"lat":14.52515,"lng":121.01211,"region":"National Capital Region (NCR)","city":"Pasay City","brgy":"Barangay 160"},{"id":31715,"zip":1300,"lat":14.52515,"lng":121.01211,"region":"National Capital Region (NCR)","city":"Pasay City","brgy":"Barangay 161"},{"id":31716,"zip":1300,"lat":14.52515,"lng":121.01211,"region":"National Capital Region (NCR)","city":"Pasay City","brgy":"Barangay 162"},{"id":31717,"zip":1300,"lat":14.52515,"lng":121.01211,"region":"National Capital Region (NCR)","city":"Pasay City","brgy":"Barangay 163"},{"id":31718,"zip":1300,"lat":14.52515,"lng":121.01211,"region":"National Capital Region (NCR)","city":"Pasay City","brgy":"Barangay 164"},{"id":31719,"zip":1300,"lat":14.52515,"lng":121.01211,"region":"National Capital Region (NCR)","city":"Pasay City","brgy":"Barangay 165"},{"id":31720,"zip":1300,"lat":14.52515,"lng":121.01211,"region":"National Capital Region (NCR)","city":"Pasay City","brgy":"Barangay 166"},{"id":31721,"zip":1300,"lat":14.52515,"lng":121.01211,"region":"National Capital Region (NCR)","city":"Pasay City","brgy":"Barangay 167"},{"id":31722,"zip":1300,"lat":14.52515,"lng":121.01211,"region":"National Capital Region (NCR)","city":"Pasay City","brgy":"Barangay 168"},{"id":31723,"zip":1300,"lat":14.52515,"lng":121.01211,"region":"National Capital Region (NCR)","city":"Pasay City","brgy":"Barangay 169"},{"id":31724,"zip":1300,"lat":14.52515,"lng":121.01211,"region":"National Capital Region (NCR)","city":"Pasay City","brgy":"Barangay 17"},{"id":31725,"zip":1300,"lat":14.52515,"lng":121.01211,"region":"National Capital Region (NCR)","city":"Pasay City","brgy":"Barangay 170"},{"id":31726,"zip":1300,"lat":14.52515,"lng":121.01211,"region":"National Capital Region (NCR)","city":"Pasay City","brgy":"Barangay 171"},{"id":31727,"zip":1300,"lat":14.52515,"lng":121.01211,"region":"National Capital Region (NCR)","city":"Pasay City","brgy":"Barangay 172"},{"id":31728,"zip":1300,"lat":14.52515,"lng":121.01211,"region":"National Capital Region (NCR)","city":"Pasay City","brgy":"Barangay 173"},{"id":31729,"zip":1300,"lat":14.52515,"lng":121.01211,"region":"National Capital Region (NCR)","city":"Pasay City","brgy":"Barangay 174"},{"id":31730,"zip":1300,"lat":14.52515,"lng":121.01211,"region":"National Capital Region (NCR)","city":"Pasay City","brgy":"Barangay 175"},{"id":31731,"zip":1300,"lat":14.52515,"lng":121.01211,"region":"National Capital Region (NCR)","city":"Pasay City","brgy":"Barangay 176"},{"id":31732,"zip":1300,"lat":14.5316,"lng":121.01093,"region":"National Capital Region (NCR)","city":"Pasay City","brgy":"Barangay 177"},{"id":31733,"zip":1300,"lat":14.52515,"lng":121.01211,"region":"National Capital Region (NCR)","city":"Pasay City","brgy":"Barangay 178"},{"id":31734,"zip":1300,"lat":14.52515,"lng":121.01211,"region":"National Capital Region (NCR)","city":"Pasay City","brgy":"Barangay 179"},{"id":31735,"zip":1300,"lat":14.52515,"lng":121.01211,"region":"National Capital Region (NCR)","city":"Pasay City","brgy":"Barangay 18"},{"id":31736,"zip":1300,"lat":14.52515,"lng":121.01211,"region":"National Capital Region (NCR)","city":"Pasay City","brgy":"Barangay 180"},{"id":31737,"zip":1300,"lat":14.52515,"lng":121.01211,"region":"National Capital Region (NCR)","city":"Pasay City","brgy":"Barangay 181"},{"id":31738,"zip":1300,"lat":14.52515,"lng":121.01211,"region":"National Capital Region (NCR)","city":"Pasay City","brgy":"Barangay 182"},{"id":31739,"zip":1300,"lat":14.52515,"lng":121.01211,"region":"National Capital Region (NCR)","city":"Pasay City","brgy":"Barangay 183"},{"id":31740,"zip":1300,"lat":14.52515,"lng":121.01211,"region":"National Capital Region (NCR)","city":"Pasay City","brgy":"Barangay 184"},{"id":31741,"zip":1300,"lat":14.52515,"lng":121.01211,"region":"National Capital Region (NCR)","city":"Pasay City","brgy":"Barangay 185"},{"id":31742,"zip":1300,"lat":14.52515,"lng":121.01211,"region":"National Capital Region (NCR)","city":"Pasay City","brgy":"Barangay 186"},{"id":31743,"zip":1300,"lat":14.52515,"lng":121.01211,"region":"National Capital Region (NCR)","city":"Pasay City","brgy":"Barangay 187"},{"id":31744,"zip":1300,"lat":14.52515,"lng":121.01211,"region":"National Capital Region (NCR)","city":"Pasay City","brgy":"Barangay 188"},{"id":31745,"zip":1300,"lat":14.52515,"lng":121.01211,"region":"National Capital Region (NCR)","city":"Pasay City","brgy":"Barangay 189"},{"id":31746,"zip":1300,"lat":14.52515,"lng":121.01211,"region":"National Capital Region (NCR)","city":"Pasay City","brgy":"Barangay 19"},{"id":31747,"zip":1300,"lat":14.52515,"lng":121.01211,"region":"National Capital Region (NCR)","city":"Pasay City","brgy":"Barangay 190"},{"id":31748,"zip":1300,"lat":14.52515,"lng":121.01211,"region":"National Capital Region (NCR)","city":"Pasay City","brgy":"Barangay 191"},{"id":31749,"zip":1300,"lat":14.52515,"lng":121.01211,"region":"National Capital Region (NCR)","city":"Pasay City","brgy":"Barangay 192"},{"id":31750,"zip":1300,"lat":14.52515,"lng":121.01211,"region":"National Capital Region (NCR)","city":"Pasay City","brgy":"Barangay 193"},{"id":31751,"zip":1300,"lat":14.52515,"lng":121.01211,"region":"National Capital Region (NCR)","city":"Pasay City","brgy":"Barangay 194"},{"id":31752,"zip":1300,"lat":14.52515,"lng":121.01211,"region":"National Capital Region (NCR)","city":"Pasay City","brgy":"Barangay 195"},{"id":31753,"zip":1300,"lat":14.52515,"lng":121.01211,"region":"National Capital Region (NCR)","city":"Pasay City","brgy":"Barangay 196"},{"id":31754,"zip":1300,"lat":14.52515,"lng":121.01211,"region":"National Capital Region (NCR)","city":"Pasay City","brgy":"Barangay 197"},{"id":31755,"zip":1300,"lat":14.52515,"lng":121.01211,"region":"National Capital Region (NCR)","city":"Pasay City","brgy":"Barangay 198"},{"id":31756,"zip":1300,"lat":14.50915,"lng":121.0009,"region":"National Capital Region (NCR)","city":"Pasay City","brgy":"Barangay 199"},{"id":31757,"zip":1300,"lat":14.53483,"lng":120.99866,"region":"National Capital Region (NCR)","city":"Pasay City","brgy":"Barangay 2"},{"id":31758,"zip":1300,"lat":14.52515,"lng":121.01211,"region":"National Capital Region (NCR)","city":"Pasay City","brgy":"Barangay 20"},{"id":31759,"zip":1300,"lat":14.52515,"lng":121.01211,"region":"National Capital Region (NCR)","city":"Pasay City","brgy":"Barangay 200"},{"id":31760,"zip":1300,"lat":14.52515,"lng":121.01211,"region":"National Capital Region (NCR)","city":"Pasay City","brgy":"Barangay 201"},{"id":31761,"zip":1300,"lat":14.52515,"lng":121.01211,"region":"National Capital Region (NCR)","city":"Pasay City","brgy":"Barangay 21"},{"id":31762,"zip":1300,"lat":14.52515,"lng":121.01211,"region":"National Capital Region (NCR)","city":"Pasay City","brgy":"Barangay 22"},{"id":31763,"zip":1300,"lat":14.52515,"lng":121.01211,"region":"National Capital Region (NCR)","city":"Pasay City","brgy":"Barangay 23"},{"id":31764,"zip":1300,"lat":14.52515,"lng":121.01211,"region":"National Capital Region (NCR)","city":"Pasay City","brgy":"Barangay 24"},{"id":31765,"zip":1300,"lat":14.52515,"lng":121.01211,"region":"National Capital Region (NCR)","city":"Pasay City","brgy":"Barangay 25"},{"id":31766,"zip":1300,"lat":14.52515,"lng":121.01211,"region":"National Capital Region (NCR)","city":"Pasay City","brgy":"Barangay 26"},{"id":31767,"zip":1300,"lat":14.52515,"lng":121.01211,"region":"National Capital Region (NCR)","city":"Pasay City","brgy":"Barangay 27"},{"id":31768,"zip":1300,"lat":14.52515,"lng":121.01211,"region":"National Capital Region (NCR)","city":"Pasay City","brgy":"Barangay 28"},{"id":31769,"zip":1300,"lat":14.52515,"lng":121.01211,"region":"National Capital Region (NCR)","city":"Pasay City","brgy":"Barangay 29"},{"id":31770,"zip":1300,"lat":14.52515,"lng":121.01211,"region":"National Capital Region (NCR)","city":"Pasay City","brgy":"Barangay 3"},{"id":31771,"zip":1300,"lat":14.52515,"lng":121.01211,"region":"National Capital Region (NCR)","city":"Pasay City","brgy":"Barangay 30"},{"id":31772,"zip":1300,"lat":14.5305,"lng":121.01561,"region":"National Capital Region (NCR)","city":"Pasay City","brgy":"Barangay 31"},{"id":31773,"zip":1300,"lat":14.52515,"lng":121.01211,"region":"National Capital Region (NCR)","city":"Pasay City","brgy":"Barangay 32"},{"id":31774,"zip":1300,"lat":14.52515,"lng":121.01211,"region":"National Capital Region (NCR)","city":"Pasay City","brgy":"Barangay 33"},{"id":31775,"zip":1300,"lat":14.52515,"lng":121.01211,"region":"National Capital Region (NCR)","city":"Pasay City","brgy":"Barangay 34"},{"id":31776,"zip":1300,"lat":14.52515,"lng":121.01211,"region":"National Capital Region (NCR)","city":"Pasay City","brgy":"Barangay 35"},{"id":31777,"zip":1300,"lat":14.52515,"lng":121.01211,"region":"National Capital Region (NCR)","city":"Pasay City","brgy":"Barangay 36"},{"id":31778,"zip":1300,"lat":14.52515,"lng":121.01211,"region":"National Capital Region (NCR)","city":"Pasay City","brgy":"Barangay 37"},{"id":31779,"zip":1300,"lat":14.52515,"lng":121.01211,"region":"National Capital Region (NCR)","city":"Pasay City","brgy":"Barangay 38"},{"id":31780,"zip":1300,"lat":14.52515,"lng":121.01211,"region":"National Capital Region (NCR)","city":"Pasay City","brgy":"Barangay 39"},{"id":31781,"zip":1300,"lat":14.53733,"lng":120.99432,"region":"National Capital Region (NCR)","city":"Pasay City","brgy":"Barangay 4"},{"id":31782,"zip":1300,"lat":14.52515,"lng":121.01211,"region":"National Capital Region (NCR)","city":"Pasay City","brgy":"Barangay 40"},{"id":31783,"zip":1300,"lat":14.52515,"lng":121.01211,"region":"National Capital Region (NCR)","city":"Pasay City","brgy":"Barangay 41"},{"id":31784,"zip":1300,"lat":14.52515,"lng":121.01211,"region":"National Capital Region (NCR)","city":"Pasay City","brgy":"Barangay 42"},{"id":31785,"zip":1300,"lat":14.52515,"lng":121.01211,"region":"National Capital Region (NCR)","city":"Pasay City","brgy":"Barangay 43"},{"id":31786,"zip":1300,"lat":14.52515,"lng":121.01211,"region":"National Capital Region (NCR)","city":"Pasay City","brgy":"Barangay 44"},{"id":31787,"zip":1300,"lat":14.52515,"lng":121.01211,"region":"National Capital Region (NCR)","city":"Pasay City","brgy":"Barangay 45"},{"id":31788,"zip":1300,"lat":14.52515,"lng":121.01211,"region":"National Capital Region (NCR)","city":"Pasay City","brgy":"Barangay 46"},{"id":31789,"zip":1300,"lat":14.52515,"lng":121.01211,"region":"National Capital Region (NCR)","city":"Pasay City","brgy":"Barangay 47"},{"id":31790,"zip":1300,"lat":14.52515,"lng":121.01211,"region":"National Capital Region (NCR)","city":"Pasay City","brgy":"Barangay 48"},{"id":31791,"zip":1300,"lat":14.52515,"lng":121.01211,"region":"National Capital Region (NCR)","city":"Pasay City","brgy":"Barangay 49"},{"id":31792,"zip":1300,"lat":14.52515,"lng":121.01211,"region":"National Capital Region (NCR)","city":"Pasay City","brgy":"Barangay 5"},{"id":31793,"zip":1300,"lat":14.52515,"lng":121.01211,"region":"National Capital Region (NCR)","city":"Pasay City","brgy":"Barangay 50"},{"id":31794,"zip":1300,"lat":14.52515,"lng":121.01211,"region":"National Capital Region (NCR)","city":"Pasay City","brgy":"Barangay 51"},{"id":31795,"zip":1300,"lat":14.52515,"lng":121.01211,"region":"National Capital Region (NCR)","city":"Pasay City","brgy":"Barangay 52"},{"id":31796,"zip":1300,"lat":14.52515,"lng":121.01211,"region":"National Capital Region (NCR)","city":"Pasay City","brgy":"Barangay 53"},{"id":31797,"zip":1300,"lat":14.52515,"lng":121.01211,"region":"National Capital Region (NCR)","city":"Pasay City","brgy":"Barangay 54"},{"id":31798,"zip":1300,"lat":14.52515,"lng":121.01211,"region":"National Capital Region (NCR)","city":"Pasay City","brgy":"Barangay 55"},{"id":31799,"zip":1300,"lat":14.52515,"lng":121.01211,"region":"National Capital Region (NCR)","city":"Pasay City","brgy":"Barangay 56"},{"id":31800,"zip":1300,"lat":14.52515,"lng":121.01211,"region":"National Capital Region (NCR)","city":"Pasay City","brgy":"Barangay 57"},{"id":31801,"zip":1300,"lat":14.52515,"lng":121.01211,"region":"National Capital Region (NCR)","city":"Pasay City","brgy":"Barangay 58"},{"id":31802,"zip":1300,"lat":14.52515,"lng":121.01211,"region":"National Capital Region (NCR)","city":"Pasay City","brgy":"Barangay 59"},{"id":31803,"zip":1300,"lat":14.52515,"lng":121.01211,"region":"National Capital Region (NCR)","city":"Pasay City","brgy":"Barangay 6"},{"id":31804,"zip":1300,"lat":14.52515,"lng":121.01211,"region":"National Capital Region (NCR)","city":"Pasay City","brgy":"Barangay 60"},{"id":31805,"zip":1300,"lat":14.52515,"lng":121.01211,"region":"National Capital Region (NCR)","city":"Pasay City","brgy":"Barangay 61"},{"id":31806,"zip":1300,"lat":14.52515,"lng":121.01211,"region":"National Capital Region (NCR)","city":"Pasay City","brgy":"Barangay 62"},{"id":31807,"zip":1300,"lat":14.52515,"lng":121.01211,"region":"National Capital Region (NCR)","city":"Pasay City","brgy":"Barangay 63"},{"id":31808,"zip":1300,"lat":14.52515,"lng":121.01211,"region":"National Capital Region (NCR)","city":"Pasay City","brgy":"Barangay 64"},{"id":31809,"zip":1300,"lat":14.52515,"lng":121.01211,"region":"National Capital Region (NCR)","city":"Pasay City","brgy":"Barangay 65"},{"id":31810,"zip":1300,"lat":14.52515,"lng":121.01211,"region":"National Capital Region (NCR)","city":"Pasay City","brgy":"Barangay 66"},{"id":31811,"zip":1300,"lat":14.52515,"lng":121.01211,"region":"National Capital Region (NCR)","city":"Pasay City","brgy":"Barangay 67"},{"id":31812,"zip":1300,"lat":14.52515,"lng":121.01211,"region":"National Capital Region (NCR)","city":"Pasay City","brgy":"Barangay 68"},{"id":31813,"zip":1300,"lat":14.52515,"lng":121.01211,"region":"National Capital Region (NCR)","city":"Pasay City","brgy":"Barangay 69"},{"id":31814,"zip":1300,"lat":14.52515,"lng":121.01211,"region":"National Capital Region (NCR)","city":"Pasay City","brgy":"Barangay 7"},{"id":31815,"zip":1300,"lat":14.52515,"lng":121.01211,"region":"National Capital Region (NCR)","city":"Pasay City","brgy":"Barangay 70"},{"id":31816,"zip":1300,"lat":14.52515,"lng":121.01211,"region":"National Capital Region (NCR)","city":"Pasay City","brgy":"Barangay 71"},{"id":31817,"zip":1300,"lat":14.52515,"lng":121.01211,"region":"National Capital Region (NCR)","city":"Pasay City","brgy":"Barangay 72"},{"id":31818,"zip":1300,"lat":14.52515,"lng":121.01211,"region":"National Capital Region (NCR)","city":"Pasay City","brgy":"Barangay 73"},{"id":31819,"zip":1300,"lat":14.54391,"lng":121.00493,"region":"National Capital Region (NCR)","city":"Pasay City","brgy":"Barangay 74"},{"id":31820,"zip":1300,"lat":14.52515,"lng":121.01211,"region":"National Capital Region (NCR)","city":"Pasay City","brgy":"Barangay 75"},{"id":31821,"zip":1300,"lat":14.52515,"lng":121.01211,"region":"National Capital Region (NCR)","city":"Pasay City","brgy":"Barangay 76"},{"id":31822,"zip":1300,"lat":14.52515,"lng":121.01211,"region":"National Capital Region (NCR)","city":"Pasay City","brgy":"Barangay 77"},{"id":31823,"zip":1300,"lat":14.52515,"lng":121.01211,"region":"National Capital Region (NCR)","city":"Pasay City","brgy":"Barangay 78"},{"id":31824,"zip":1300,"lat":14.52515,"lng":121.01211,"region":"National Capital Region (NCR)","city":"Pasay City","brgy":"Barangay 79"},{"id":31825,"zip":1300,"lat":14.52515,"lng":121.01211,"region":"National Capital Region (NCR)","city":"Pasay City","brgy":"Barangay 8"},{"id":31826,"zip":1300,"lat":14.52515,"lng":121.01211,"region":"National Capital Region (NCR)","city":"Pasay City","brgy":"Barangay 80"},{"id":31827,"zip":1300,"lat":14.52515,"lng":121.01211,"region":"National Capital Region (NCR)","city":"Pasay City","brgy":"Barangay 81"},{"id":31828,"zip":1300,"lat":14.52515,"lng":121.01211,"region":"National Capital Region (NCR)","city":"Pasay City","brgy":"Barangay 82"},{"id":31829,"zip":1300,"lat":14.52515,"lng":121.01211,"region":"National Capital Region (NCR)","city":"Pasay City","brgy":"Barangay 83"},{"id":31830,"zip":1300,"lat":14.52515,"lng":121.01211,"region":"National Capital Region (NCR)","city":"Pasay City","brgy":"Barangay 84"},{"id":31831,"zip":1300,"lat":14.52515,"lng":121.01211,"region":"National Capital Region (NCR)","city":"Pasay City","brgy":"Barangay 85"},{"id":31832,"zip":1300,"lat":14.52515,"lng":121.01211,"region":"National Capital Region (NCR)","city":"Pasay City","brgy":"Barangay 86"},{"id":31833,"zip":1300,"lat":14.52515,"lng":121.01211,"region":"National Capital Region (NCR)","city":"Pasay City","brgy":"Barangay 87"},{"id":31834,"zip":1300,"lat":14.52515,"lng":121.01211,"region":"National Capital Region (NCR)","city":"Pasay City","brgy":"Barangay 88"},{"id":31835,"zip":1300,"lat":14.52515,"lng":121.01211,"region":"National Capital Region (NCR)","city":"Pasay City","brgy":"Barangay 89"},{"id":31836,"zip":1300,"lat":14.52515,"lng":121.01211,"region":"National Capital Region (NCR)","city":"Pasay City","brgy":"Barangay 9"},{"id":31837,"zip":1300,"lat":14.52515,"lng":121.01211,"region":"National Capital Region (NCR)","city":"Pasay City","brgy":"Barangay 90"},{"id":31838,"zip":1300,"lat":14.52515,"lng":121.01211,"region":"National Capital Region (NCR)","city":"Pasay City","brgy":"Barangay 91"},{"id":31839,"zip":1300,"lat":14.52515,"lng":121.01211,"region":"National Capital Region (NCR)","city":"Pasay City","brgy":"Barangay 92"},{"id":31840,"zip":1300,"lat":14.52515,"lng":121.01211,"region":"National Capital Region (NCR)","city":"Pasay City","brgy":"Barangay 93"},{"id":31841,"zip":1300,"lat":14.52515,"lng":121.01211,"region":"National Capital Region (NCR)","city":"Pasay City","brgy":"Barangay 94"},{"id":31842,"zip":1300,"lat":14.52515,"lng":121.01211,"region":"National Capital Region (NCR)","city":"Pasay City","brgy":"Barangay 95"},{"id":31843,"zip":1300,"lat":14.52515,"lng":121.01211,"region":"National Capital Region (NCR)","city":"Pasay City","brgy":"Barangay 96"},{"id":31844,"zip":1300,"lat":14.52515,"lng":121.01211,"region":"National Capital Region (NCR)","city":"Pasay City","brgy":"Barangay 97"},{"id":31845,"zip":1300,"lat":14.52515,"lng":121.01211,"region":"National Capital Region (NCR)","city":"Pasay City","brgy":"Barangay 98"},{"id":31846,"zip":1300,"lat":14.52515,"lng":121.01211,"region":"National Capital Region (NCR)","city":"Pasay City","brgy":"Barangay 99"},{"id":31847,"zip":1308,"lat":14.5096,"lng":121.01251,"region":"National Capital Region (NCR)","city":"Pasay City","brgy":"Bay City"},{"id":31848,"zip":1301,"lat":14.5096,"lng":121.01251,"region":"National Capital Region (NCR)","city":"Pasay City","brgy":"Domestic Airport"},{"id":31849,"zip":1307,"lat":14.55416,"lng":120.98286,"region":"National Capital Region (NCR)","city":"Pasay City","brgy":"Philippine International Convention Center"},{"id":31850,"zip":1306,"lat":14.55394,"lng":121.00627,"region":"National Capital Region (NCR)","city":"Pasay City","brgy":"San Isidro"},{"id":31851,"zip":1305,"lat":14.5817,"lng":121.02975,"region":"National Capital Region (NCR)","city":"Pasay City","brgy":"San Jose"},{"id":31852,"zip":1302,"lat":14.58124,"lng":121.0326,"region":"National Capital Region (NCR)","city":"Pasay City","brgy":"San Rafael"},{"id":31853,"zip":1303,"lat":14.53887,"lng":121.00554,"region":"National Capital Region (NCR)","city":"Pasay City","brgy":"San Roque"},{"id":31854,"zip":1304,"lat":14.47135,"lng":121.02031,"region":"National Capital Region (NCR)","city":"Pasay City","brgy":"Santa Clara"},{"id":31855,"zip":1309,"lat":14.5096,"lng":121.01251,"region":"National Capital Region (NCR)","city":"Pasay City","brgy":"Villamor Airbase"},{"id":31856,"zip":1600,"lat":14.56539,"lng":121.06934,"region":"National Capital Region (NCR)","city":"Pasig City","brgy":"Bagong Ilog"},{"id":31857,"zip":1600,"lat":14.65725,"lng":121.09013,"region":"National Capital Region (NCR)","city":"Pasig City","brgy":"Bagong Katipunan"},{"id":31858,"zip":1600,"lat":14.52478,"lng":121.06862,"region":"National Capital Region (NCR)","city":"Pasig City","brgy":"Bambang"},{"id":31859,"zip":1600,"lat":14.55529,"lng":121.06583,"region":"National Capital Region (NCR)","city":"Pasig City","brgy":"Buting"},{"id":31860,"zip":1606,"lat":14.57189,"lng":121.07794,"region":"National Capital Region (NCR)","city":"Pasig City","brgy":"Caniogan"},{"id":31861,"zip":1600,"lat":14.6159,"lng":121.09513,"region":"National Capital Region (NCR)","city":"Pasig City","brgy":"Dela Paz"},{"id":31862,"zip":1612,"lat":14.61359,"lng":121.10771,"region":"National Capital Region (NCR)","city":"Pasig City","brgy":"Green Park"},{"id":31863,"zip":1600,"lat":14.5536,"lng":121.08199,"region":"National Capital Region (NCR)","city":"Pasig City","brgy":"Kalawaan"},{"id":31864,"zip":1600,"lat":14.55,"lng":121.075,"region":"National Capital Region (NCR)","city":"Pasig City","brgy":"Kapasigan"},{"id":31865,"zip":1603,"lat":14.56924,"lng":121.06074,"region":"National Capital Region (NCR)","city":"Pasig City","brgy":"Kapitolyo"},{"id":31866,"zip":1600,"lat":14.55944,"lng":121.07721,"region":"National Capital Region (NCR)","city":"Pasig City","brgy":"Malinao"},{"id":31867,"zip":1611,"lat":14.60104,"lng":121.09943,"region":"National Capital Region (NCR)","city":"Pasig City","brgy":"Manggahan"},{"id":31868,"zip":1607,"lat":14.57688,"lng":121.08797,"region":"National Capital Region (NCR)","city":"Pasig City","brgy":"Maybunga"},{"id":31869,"zip":1600,"lat":14.57615,"lng":121.06647,"region":"National Capital Region (NCR)","city":"Pasig City","brgy":"Oranbo"},{"id":31870,"zip":1605,"lat":14.58906,"lng":121.06999,"region":"National Capital Region (NCR)","city":"Pasig City","brgy":"Ortigas"},{"id":31871,"zip":1600,"lat":14.56093,"lng":121.07637,"region":"National Capital Region (NCR)","city":"Pasig City","brgy":"Palatiw"},{"id":31872,"zip":1602,"lat":14.55478,"lng":121.09154,"region":"National Capital Region (NCR)","city":"Pasig City","brgy":"Pinagbuhatan"},{"id":31873,"zip":1600,"lat":14.56311,"lng":121.06289,"region":"National Capital Region (NCR)","city":"Pasig City","brgy":"Pineda"},{"id":31874,"zip":1609,"lat":14.58722,"lng":121.08797,"region":"National Capital Region (NCR)","city":"Pasig City","brgy":"Rosario"},{"id":31875,"zip":1600,"lat":14.56632,"lng":121.07982,"region":"National Capital Region (NCR)","city":"Pasig City","brgy":"Sagad"},{"id":31876,"zip":1600,"lat":14.58271,"lng":121.06146,"region":"National Capital Region (NCR)","city":"Pasig City","brgy":"San Antonio"},{"id":31877,"zip":1601,"lat":14.58,"lng":121.03089,"region":"National Capital Region (NCR)","city":"Pasig City","brgy":"San Joaquin"},{"id":31878,"zip":1600,"lat":14.56844,"lng":121.06242,"region":"National Capital Region (NCR)","city":"Pasig City","brgy":"San Jose"},{"id":31879,"zip":1600,"lat":14.56654,"lng":121.06189,"region":"National Capital Region (NCR)","city":"Pasig City","brgy":"San Miguel"},{"id":31880,"zip":1600,"lat":14.55,"lng":121.075,"region":"National Capital Region (NCR)","city":"Pasig City","brgy":"San Nicolas (Pob.)"},{"id":31881,"zip":1600,"lat":14.60943,"lng":121.16531,"region":"National Capital Region (NCR)","city":"Pasig City","brgy":"Santa Cruz"},{"id":31882,"zip":1608,"lat":14.58553,"lng":121.09943,"region":"National Capital Region (NCR)","city":"Pasig City","brgy":"Santa Lucia"},{"id":31883,"zip":1600,"lat":14.57926,"lng":121.1168,"region":"National Capital Region (NCR)","city":"Pasig City","brgy":"Santa Rosa"},{"id":31884,"zip":1600,"lat":14.6158,"lng":121.0848,"region":"National Capital Region (NCR)","city":"Pasig City","brgy":"Santo Tomas"},{"id":31885,"zip":1610,"lat":14.61307,"lng":121.08797,"region":"National Capital Region (NCR)","city":"Pasig City","brgy":"Santolan"},{"id":31886,"zip":1600,"lat":14.6,"lng":121.05,"region":"National Capital Region (NCR)","city":"Pasig City","brgy":"Sumilang"},{"id":31887,"zip":1604,"lat":14.57964,"lng":121.07794,"region":"National Capital Region (NCR)","city":"Pasig City","brgy":"Ugong"},{"id":31888,"zip":1620,"lat":14.54248,"lng":121.06468,"region":"National Capital Region (NCR)","city":"Pateros","brgy":"Aguho"},{"id":31889,"zip":1620,"lat":14.548,"lng":121.07113,"region":"National Capital Region (NCR)","city":"Pateros","brgy":"Magtanggol"},{"id":31890,"zip":1620,"lat":14.63908,"lng":120.97209,"region":"National Capital Region (NCR)","city":"Pateros","brgy":"Martires del 96"},{"id":31891,"zip":1620,"lat":14.56568,"lng":121.03208,"region":"National Capital Region (NCR)","city":"Pateros","brgy":"Poblacion"},{"id":31892,"zip":1620,"lat":14.54696,"lng":121.06719,"region":"National Capital Region (NCR)","city":"Pateros","brgy":"San Pedro"},{"id":31893,"zip":1620,"lat":14.53981,"lng":121.0697,"region":"National Capital Region (NCR)","city":"Pateros","brgy":"San Roque"},{"id":31894,"zip":1621,"lat":14.54429,"lng":121.07221,"region":"National Capital Region (NCR)","city":"Pateros","brgy":"Santa Ana"},{"id":31895,"zip":1620,"lat":14.55176,"lng":121.06755,"region":"National Capital Region (NCR)","city":"Pateros","brgy":"Santo Rosario-Kanluran"},{"id":31896,"zip":1620,"lat":14.54979,"lng":121.07436,"region":"National Capital Region (NCR)","city":"Pateros","brgy":"Santo Rosario-Silangan"},{"id":31897,"zip":1620,"lat":14.54971,"lng":121.06827,"region":"National Capital Region (NCR)","city":"Pateros","brgy":"Tabacalera"},{"id":31898,"zip":1105,"lat":14.66143,"lng":121.02527,"region":"National Capital Region (NCR)","city":"Quezon City","brgy":"Alicia"},{"id":31899,"zip":1102,"lat":14.63209,"lng":121.06862,"region":"National Capital Region (NCR)","city":"Quezon City","brgy":"Amihan"},{"id":31900,"zip":1106,"lat":14.65593,"lng":121.00771,"region":"National Capital Region (NCR)","city":"Quezon City","brgy":"Apolonio Samson"},{"id":31901,"zip":810,"lat":14.62266,"lng":121.05255,"region":"National Capital Region (NCR)","city":"Quezon City","brgy":"Araneta Center"},{"id":31902,"zip":1113,"lat":14.68569,"lng":121.07716,"region":"National Capital Region (NCR)","city":"Quezon City","brgy":"Aurora"},{"id":31903,"zip":1106,"lat":14.66953,"lng":121.01201,"region":"National Capital Region (NCR)","city":"Quezon City","brgy":"Baesa"},{"id":31904,"zip":1116,"lat":14.69547,"lng":121.02921,"region":"National Capital Region (NCR)","city":"Quezon City","brgy":"Bagbag"},{"id":31905,"zip":1110,"lat":14.60766,"lng":121.0808,"region":"National Capital Region (NCR)","city":"Quezon City","brgy":"Bagong Bayan"},{"id":31906,"zip":1109,"lat":14.62475,"lng":121.06576,"region":"National Capital Region (NCR)","city":"Quezon City","brgy":"Bagong Buhay"},{"id":31907,"zip":1111,"lat":14.60929,"lng":121.05214,"region":"National Capital Region (NCR)","city":"Quezon City","brgy":"Bagong Lipunan"},{"id":31908,"zip":1105,"lat":14.66044,"lng":121.03423,"region":"National Capital Region (NCR)","city":"Quezon City","brgy":"Bagong Pag-asa"},{"id":31909,"zip":1119,"lat":14.70798,"lng":121.11089,"region":"National Capital Region (NCR)","city":"Quezon City","brgy":"Bagong Silangan"},{"id":31910,"zip":1106,"lat":14.66996,"lng":121.02511,"region":"National Capital Region (NCR)","city":"Quezon City","brgy":"Bahay Toro"},{"id":31911,"zip":1115,"lat":14.6531,"lng":121.00054,"region":"National Capital Region (NCR)","city":"Quezon City","brgy":"Balingasa"},{"id":31912,"zip":1106,"lat":14.65593,"lng":121.00771,"region":"National Capital Region (NCR)","city":"Quezon City","brgy":"Balintawak"},{"id":31913,"zip":1106,"lat":14.66379,"lng":121.00269,"region":"National Capital Region (NCR)","city":"Quezon City","brgy":"Balong Bato"},{"id":31914,"zip":1106,"lat":14.66379,"lng":121.00269,"region":"National Capital Region (NCR)","city":"Quezon City","brgy":"Balumbato"},{"id":31915,"zip":1126,"lat":14.68164,"lng":121.09656,"region":"National Capital Region (NCR)","city":"Quezon City","brgy":"Batasan Hills"},{"id":31916,"zip":1109,"lat":14.61525,"lng":121.06988,"region":"National Capital Region (NCR)","city":"Quezon City","brgy":"Bayanihan"},{"id":31917,"zip":1120,"lat":14.68652,"lng":121.08467,"region":"National Capital Region (NCR)","city":"Quezon City","brgy":"BF Homes"},{"id":31918,"zip":1109,"lat":14.61944,"lng":121.07328,"region":"National Capital Region (NCR)","city":"Quezon City","brgy":"Blue Ridge A"},{"id":31919,"zip":1109,"lat":14.61702,"lng":121.07436,"region":"National Capital Region (NCR)","city":"Quezon City","brgy":"Blue Ridge B"},{"id":31920,"zip":1101,"lat":14.63654,"lng":121.06253,"region":"National Capital Region (NCR)","city":"Quezon City","brgy":"Botocan"},{"id":31921,"zip":1105,"lat":14.64973,"lng":121.02348,"region":"National Capital Region (NCR)","city":"Quezon City","brgy":"Bungad"},{"id":31922,"zip":820,"lat":14.64235,"lng":121.04304,"region":"National Capital Region (NCR)","city":"Quezon City","brgy":"Bureau of Internal Revenue"},{"id":31923,"zip":802,"lat":14.6061,"lng":121.06504,"region":"National Capital Region (NCR)","city":"Quezon City","brgy":"Camp Aguinaldo"},{"id":31924,"zip":1110,"lat":14.6061,"lng":121.06504,"region":"National Capital Region (NCR)","city":"Quezon City","brgy":"Camp Aguinaldo"},{"id":31925,"zip":801,"lat":14.60805,"lng":121.05321,"region":"National Capital Region (NCR)","city":"Quezon City","brgy":"Camp Crame"},{"id":31926,"zip":1126,"lat":14.61544,"lng":121.02406,"region":"National Capital Region (NCR)","city":"Quezon City","brgy":"Capitol Hills Park"},{"id":31927,"zip":1117,"lat":14.71694,"lng":121.02849,"region":"National Capital Region (NCR)","city":"Quezon City","brgy":"Capri"},{"id":31928,"zip":1100,"lat":14.64334,"lng":121.04928,"region":"National Capital Region (NCR)","city":"Quezon City","brgy":"Central"},{"id":31929,"zip":1102,"lat":14.6317,"lng":121.06468,"region":"National Capital Region (NCR)","city":"Quezon City","brgy":"Claro"},{"id":31930,"zip":880,"lat":14.68696,"lng":121.08927,"region":"National Capital Region (NCR)","city":"Quezon City","brgy":"Commission on Audit"},{"id":31931,"zip":1121,"lat":14.70102,"lng":121.08797,"region":"National Capital Region (NCR)","city":"Quezon City","brgy":"Commonwealth"},{"id":31932,"zip":1111,"lat":14.60846,"lng":121.06164,"region":"National Capital Region (NCR)","city":"Quezon City","brgy":"Crame"},{"id":31933,"zip":1109,"lat":14.61729,"lng":121.05931,"region":"National Capital Region (NCR)","city":"Quezon City","brgy":"Cubao"},{"id":31934,"zip":1128,"lat":14.66988,"lng":121.05358,"region":"National Capital Region (NCR)","city":"Quezon City","brgy":"Culiat"},{"id":31935,"zip":1115,"lat":14.64717,"lng":121.00125,"region":"National Capital Region (NCR)","city":"Quezon City","brgy":"Damar"},{"id":31936,"zip":1104,"lat":14.63751,"lng":121.01416,"region":"National Capital Region (NCR)","city":"Quezon City","brgy":"Damayan"},{"id":31937,"zip":1112,"lat":14.61609,"lng":121.02348,"region":"National Capital Region (NCR)","city":"Quezon City","brgy":"Damayan Lagi"},{"id":31938,"zip":1104,"lat":14.61609,"lng":121.02348,"region":"National Capital Region (NCR)","city":"Quezon City","brgy":"Damayang Lagi"},{"id":31939,"zip":1123,"lat":14.72393,"lng":121.03018,"region":"National Capital Region (NCR)","city":"Quezon City","brgy":"Damong Maliit"},{"id":31940,"zip":1105,"lat":14.64323,"lng":121.01487,"region":"National Capital Region (NCR)","city":"Quezon City","brgy":"Del Monte"},{"id":31941,"zip":1104,"lat":14.64701,"lng":121.05071,"region":"National Capital Region (NCR)","city":"Quezon City","brgy":"Diliman"},{"id":31942,"zip":1109,"lat":14.62006,"lng":121.06468,"region":"National Capital Region (NCR)","city":"Quezon City","brgy":"Dioquino Zobel"},{"id":31943,"zip":1113,"lat":14.61603,"lng":121.00627,"region":"National Capital Region (NCR)","city":"Quezon City","brgy":"Don Manuel"},{"id":31944,"zip":1113,"lat":14.61652,"lng":121.0095,"region":"National Capital Region (NCR)","city":"Quezon City","brgy":"Dona Aurora"},{"id":31945,"zip":1125,"lat":14.67604,"lng":121.0437,"region":"National Capital Region (NCR)","city":"Quezon City","brgy":"Dona Faustina"},{"id":31946,"zip":1113,"lat":14.60826,"lng":121.02186,"region":"National Capital Region (NCR)","city":"Quezon City","brgy":"Dona Imelda"},{"id":31947,"zip":1113,"lat":14.62045,"lng":121.00699,"region":"National Capital Region (NCR)","city":"Quezon City","brgy":"Dona Josefa"},{"id":31948,"zip":1102,"lat":14.62971,"lng":121.06719,"region":"National Capital Region (NCR)","city":"Quezon City","brgy":"Duyan-Duyan"},{"id":31949,"zip":1102,"lat":14.6274,"lng":121.05214,"region":"National Capital Region (NCR)","city":"Quezon City","brgy":"E. Rodriguez"},{"id":31950,"zip":1102,"lat":14.6314,"lng":121.05573,"region":"National Capital Region (NCR)","city":"Quezon City","brgy":"East Kamias"},{"id":31951,"zip":1109,"lat":14.6241,"lng":121.07346,"region":"National Capital Region (NCR)","city":"Quezon City","brgy":"Escopa I"},{"id":31952,"zip":1109,"lat":14.6244,"lng":121.07471,"region":"National Capital Region (NCR)","city":"Quezon City","brgy":"Escopa II"},{"id":31953,"zip":1109,"lat":14.62757,"lng":121.07292,"region":"National Capital Region (NCR)","city":"Quezon City","brgy":"Escopa III"},{"id":31954,"zip":1109,"lat":14.62556,"lng":121.07453,"region":"National Capital Region (NCR)","city":"Quezon City","brgy":"Escopa IV"},{"id":31955,"zip":1118,"lat":14.69924,"lng":121.06504,"region":"National Capital Region (NCR)","city":"Quezon City","brgy":"Fairview"},{"id":31956,"zip":1121,"lat":14.70218,"lng":121.06821,"region":"National Capital Region (NCR)","city":"Quezon City","brgy":"Fairview North"},{"id":31957,"zip":1122,"lat":14.70218,"lng":121.06821,"region":"National Capital Region (NCR)","city":"Quezon City","brgy":"Fairview South"},{"id":31958,"zip":1114,"lat":14.63161,"lng":120.99265,"region":"National Capital Region (NCR)","city":"Quezon City","brgy":"Gintong Silahis"},{"id":31959,"zip":1100,"lat":14.7303,"lng":121.06504,"region":"National Capital Region (NCR)","city":"Quezon City","brgy":"Greater Lagro"},{"id":31960,"zip":1117,"lat":14.7119,"lng":121.04068,"region":"National Capital Region (NCR)","city":"Quezon City","brgy":"Gulod"},{"id":31961,"zip":1127,"lat":14.68719,"lng":121.0765,"region":"National Capital Region (NCR)","city":"Quezon City","brgy":"Holy Spirit"},{"id":31962,"zip":1112,"lat":14.61281,"lng":121.04139,"region":"National Capital Region (NCR)","city":"Quezon City","brgy":"Horseshoe"},{"id":31963,"zip":1111,"lat":14.62144,"lng":121.04426,"region":"National Capital Region (NCR)","city":"Quezon City","brgy":"Immaculate Concepcion"},{"id":31964,"zip":1124,"lat":14.73285,"lng":121.04784,"region":"National Capital Region (NCR)","city":"Quezon City","brgy":"Kaligayahan"},{"id":31965,"zip":1112,"lat":14.68814,"lng":121.0903,"region":"National Capital Region (NCR)","city":"Quezon City","brgy":"Kalusugan"},{"id":31966,"zip":1103,"lat":14.75803,"lng":121.07036,"region":"National Capital Region (NCR)","city":"Quezon City","brgy":"Kamuning"},{"id":31967,"zip":1105,"lat":14.6363,"lng":121.07077,"region":"National Capital Region (NCR)","city":"Quezon City","brgy":"Katipunan"},{"id":31968,"zip":1111,"lat":14.61789,"lng":121.04641,"region":"National Capital Region (NCR)","city":"Quezon City","brgy":"Kaunlaran"},{"id":31969,"zip":1112,"lat":14.66033,"lng":121.07401,"region":"National Capital Region (NCR)","city":"Quezon City","brgy":"Kristong Hari"},{"id":31970,"zip":1101,"lat":14.64198,"lng":121.06289,"region":"National Capital Region (NCR)","city":"Quezon City","brgy":"Krus Na Ligas"},{"id":31971,"zip":1114,"lat":14.62769,"lng":120.99329,"region":"National Capital Region (NCR)","city":"Quezon City","brgy":"La Loma"},{"id":31972,"zip":1103,"lat":14.63294,"lng":121.03208,"region":"National Capital Region (NCR)","city":"Quezon City","brgy":"Laging Handa"},{"id":31973,"zip":1110,"lat":14.61659,"lng":121.07722,"region":"National Capital Region (NCR)","city":"Quezon City","brgy":"Libis"},{"id":31974,"zip":1114,"lat":14.62421,"lng":121.0034,"region":"National Capital Region (NCR)","city":"Quezon City","brgy":"Lourdes"},{"id":31975,"zip":1108,"lat":14.6363,"lng":121.07077,"region":"National Capital Region (NCR)","city":"Quezon City","brgy":"Loyola Heights"},{"id":31976,"zip":1114,"lat":14.63357,"lng":120.99695,"region":"National Capital Region (NCR)","city":"Quezon City","brgy":"Maharlika"},{"id":31977,"zip":1101,"lat":14.6363,"lng":121.05537,"region":"National Capital Region (NCR)","city":"Quezon City","brgy":"Malaya"},{"id":31978,"zip":1109,"lat":14.62565,"lng":121.06182,"region":"National Capital Region (NCR)","city":"Quezon City","brgy":"Mangga"},{"id":31979,"zip":1115,"lat":14.64016,"lng":121.00054,"region":"National Capital Region (NCR)","city":"Quezon City","brgy":"Manresa"},{"id":31980,"zip":1112,"lat":14.61958,"lng":121.03494,"region":"National Capital Region (NCR)","city":"Quezon City","brgy":"Mariana"},{"id":31981,"zip":1104,"lat":14.63471,"lng":121.01559,"region":"National Capital Region (NCR)","city":"Quezon City","brgy":"Mariblo"},{"id":31982,"zip":1109,"lat":14.65127,"lng":121.05806,"region":"National Capital Region (NCR)","city":"Quezon City","brgy":"Marilag"},{"id":31983,"zip":1109,"lat":14.61807,"lng":121.06719,"region":"National Capital Region (NCR)","city":"Quezon City","brgy":"Masagana"},{"id":31984,"zip":1115,"lat":14.64148,"lng":121.00914,"region":"National Capital Region (NCR)","city":"Quezon City","brgy":"Masambong"},{"id":31985,"zip":1114,"lat":14.62897,"lng":121.00627,"region":"National Capital Region (NCR)","city":"Quezon City","brgy":"Matalahib"},{"id":31986,"zip":1119,"lat":14.66565,"lng":121.08224,"region":"National Capital Region (NCR)","city":"Quezon City","brgy":"Matandang Balara"},{"id":31987,"zip":1109,"lat":14.62024,"lng":121.07006,"region":"National Capital Region (NCR)","city":"Quezon City","brgy":"Milagrosa"},{"id":31988,"zip":1114,"lat":14.62774,"lng":120.99328,"region":"National Capital Region (NCR)","city":"Quezon City","brgy":"N.S. Amoranto (Gintong Silahis)"},{"id":31989,"zip":1125,"lat":14.71962,"lng":121.02348,"region":"National Capital Region (NCR)","city":"Quezon City","brgy":"Nagkaisang Nayon"},{"id":31990,"zip":830,"lat":14.63839,"lng":121.04279,"region":"National Capital Region (NCR)","city":"Quezon City","brgy":"National Irrigation Administration"},{"id":31991,"zip":1104,"lat":14.63992,"lng":121.02419,"region":"National Capital Region (NCR)","city":"Quezon City","brgy":"Nayong Kanluran"},{"id":31992,"zip":1107,"lat":14.66455,"lng":121.0568,"region":"National Capital Region (NCR)","city":"Quezon City","brgy":"New Era (Constitution Hills)"},{"id":31993,"zip":1118,"lat":14.71044,"lng":121.05931,"region":"National Capital Region (NCR)","city":"Quezon City","brgy":"North Fairview"},{"id":31994,"zip":1123,"lat":14.72009,"lng":121.03781,"region":"National Capital Region (NCR)","city":"Quezon City","brgy":"Novaliches Proper"},{"id":31995,"zip":1103,"lat":14.60805,"lng":121.08398,"region":"National Capital Region (NCR)","city":"Quezon City","brgy":"Obrero"},{"id":31996,"zip":1101,"lat":14.65085,"lng":121.05322,"region":"National Capital Region (NCR)","city":"Quezon City","brgy":"Old Capitol Site"},{"id":31997,"zip":1114,"lat":14.62902,"lng":120.99265,"region":"National Capital Region (NCR)","city":"Quezon City","brgy":"Paang Bundok"},{"id":31998,"zip":1115,"lat":14.64651,"lng":120.99695,"region":"National Capital Region (NCR)","city":"Quezon City","brgy":"Pag-ibig Sa Nayon"},{"id":31999,"zip":1103,"lat":14.63161,"lng":121.02348,"region":"National Capital Region (NCR)","city":"Quezon City","brgy":"Paligsahan"},{"id":32000,"zip":1105,"lat":14.64455,"lng":121.02348,"region":"National Capital Region (NCR)","city":"Quezon City","brgy":"Paltok"},{"id":32001,"zip":1108,"lat":14.64898,"lng":121.07621,"region":"National Capital Region (NCR)","city":"Quezon City","brgy":"Pansol"},{"id":32002,"zip":1104,"lat":14.63709,"lng":121.01702,"region":"National Capital Region (NCR)","city":"Quezon City","brgy":"Paraiso"},{"id":32003,"zip":1118,"lat":14.73266,"lng":121.05319,"region":"National Capital Region (NCR)","city":"Quezon City","brgy":"Pasong Putik"},{"id":32004,"zip":1107,"lat":14.67938,"lng":121.05931,"region":"National Capital Region (NCR)","city":"Quezon City","brgy":"Pasong Tamo"},{"id":32005,"zip":1119,"lat":14.71076,"lng":121.10086,"region":"National Capital Region (NCR)","city":"Quezon City","brgy":"Payatas"},{"id":32006,"zip":1104,"lat":14.64921,"lng":121.03136,"region":"National Capital Region (NCR)","city":"Quezon City","brgy":"Phil-Am"},{"id":32007,"zip":850,"lat":14.64391,"lng":121.04838,"region":"National Capital Region (NCR)","city":"Quezon City","brgy":"Philippine Heart Center"},{"id":32008,"zip":1111,"lat":14.62662,"lng":121.04426,"region":"National Capital Region (NCR)","city":"Quezon City","brgy":"Pinagkaisahan"},{"id":32009,"zip":1100,"lat":14.63558,"lng":121.04928,"region":"National Capital Region (NCR)","city":"Quezon City","brgy":"Pinahan"},{"id":32010,"zip":1109,"lat":14.62078,"lng":121.07077,"region":"National Capital Region (NCR)","city":"Quezon City","brgy":"Project 4"},{"id":32011,"zip":1100,"lat":14.66056,"lng":121.03781,"region":"National Capital Region (NCR)","city":"Quezon City","brgy":"Project 6"},{"id":32012,"zip":1105,"lat":14.6534,"lng":121.02491,"region":"National Capital Region (NCR)","city":"Quezon City","brgy":"Project 7"},{"id":32013,"zip":1106,"lat":14.66893,"lng":121.02491,"region":"National Capital Region (NCR)","city":"Quezon City","brgy":"Project 8"},{"id":32014,"zip":860,"lat":14.64652,"lng":121.04987,"region":"National Capital Region (NCR)","city":"Quezon City","brgy":"Quezon City Hall"},{"id":32015,"zip":1102,"lat":14.62968,"lng":121.05859,"region":"National Capital Region (NCR)","city":"Quezon City","brgy":"Quirino 2-A"},{"id":32016,"zip":1102,"lat":14.63314,"lng":121.06146,"region":"National Capital Region (NCR)","city":"Quezon City","brgy":"Quirino 2-B"},{"id":32017,"zip":1102,"lat":14.63449,"lng":121.06325,"region":"National Capital Region (NCR)","city":"Quezon City","brgy":"Quirino 2-C"},{"id":32018,"zip":1102,"lat":14.62867,"lng":121.06325,"region":"National Capital Region (NCR)","city":"Quezon City","brgy":"Quirino 3-A"},{"id":32019,"zip":1105,"lat":14.65954,"lng":121.02276,"region":"National Capital Region (NCR)","city":"Quezon City","brgy":"Ramon Magsaysay"},{"id":32020,"zip":1103,"lat":14.63827,"lng":121.06539,"region":"National Capital Region (NCR)","city":"Quezon City","brgy":"Roxas"},{"id":32021,"zip":1103,"lat":14.63209,"lng":121.03781,"region":"National Capital Region (NCR)","city":"Quezon City","brgy":"Sacred Heart"},{"id":32022,"zip":1110,"lat":14.61205,"lng":121.07292,"region":"National Capital Region (NCR)","city":"Quezon City","brgy":"Saint Ignatius"},{"id":32023,"zip":1114,"lat":14.63444,"lng":120.99982,"region":"National Capital Region (NCR)","city":"Quezon City","brgy":"Saint Peter"},{"id":32024,"zip":1114,"lat":14.62623,"lng":120.99408,"region":"National Capital Region (NCR)","city":"Quezon City","brgy":"Salvacion"},{"id":32025,"zip":1117,"lat":14.73087,"lng":121.03494,"region":"National Capital Region (NCR)","city":"Quezon City","brgy":"San Agustin"},{"id":32026,"zip":1105,"lat":14.65024,"lng":121.01559,"region":"National Capital Region (NCR)","city":"Quezon City","brgy":"San Antonio"},{"id":32027,"zip":1116,"lat":14.70432,"lng":121.03064,"region":"National Capital Region (NCR)","city":"Quezon City","brgy":"San Bartolome"},{"id":32028,"zip":1113,"lat":14.61285,"lng":121.00806,"region":"National Capital Region (NCR)","city":"Quezon City","brgy":"San Isidro"},{"id":32029,"zip":1114,"lat":14.62343,"lng":120.99552,"region":"National Capital Region (NCR)","city":"Quezon City","brgy":"San Isidro Labrador"},{"id":32030,"zip":1115,"lat":14.64046,"lng":120.99408,"region":"National Capital Region (NCR)","city":"Quezon City","brgy":"San Jose"},{"id":32031,"zip":1111,"lat":14.61801,"lng":121.04999,"region":"National Capital Region (NCR)","city":"Quezon City","brgy":"San Martin de Porres"},{"id":32032,"zip":1109,"lat":14.61536,"lng":121.06361,"region":"National Capital Region (NCR)","city":"Quezon City","brgy":"San Roque"},{"id":32033,"zip":1101,"lat":14.65301,"lng":121.05608,"region":"National Capital Region (NCR)","city":"Quezon City","brgy":"San Vicente"},{"id":32034,"zip":1116,"lat":14.67344,"lng":121.02061,"region":"National Capital Region (NCR)","city":"Quezon City","brgy":"Sangandaan"},{"id":32035,"zip":1104,"lat":14.63538,"lng":121.01989,"region":"National Capital Region (NCR)","city":"Quezon City","brgy":"Santa Cruz"},{"id":32036,"zip":1117,"lat":14.70804,"lng":121.04928,"region":"National Capital Region (NCR)","city":"Quezon City","brgy":"Santa Lucia"},{"id":32037,"zip":1117,"lat":14.71882,"lng":121.04641,"region":"National Capital Region (NCR)","city":"Quezon City","brgy":"Santa Monica"},{"id":32038,"zip":1114,"lat":14.62021,"lng":120.99982,"region":"National Capital Region (NCR)","city":"Quezon City","brgy":"Santa Teresita"},{"id":32039,"zip":1105,"lat":14.65924,"lng":121.02921,"region":"National Capital Region (NCR)","city":"Quezon City","brgy":"Santo Cristo"},{"id":32040,"zip":1114,"lat":14.63318,"lng":121.00585,"region":"National Capital Region (NCR)","city":"Quezon City","brgy":"Santo Domingo (Matalahib)"},{"id":32041,"zip":1113,"lat":14.63782,"lng":121.02414,"region":"National Capital Region (NCR)","city":"Quezon City","brgy":"Santo Nino"},{"id":32042,"zip":1113,"lat":14.61218,"lng":121.01487,"region":"National Capital Region (NCR)","city":"Quezon City","brgy":"Santol"},{"id":32043,"zip":1116,"lat":14.6951,"lng":121.04928,"region":"National Capital Region (NCR)","city":"Quezon City","brgy":"Sauyo"},{"id":32044,"zip":1114,"lat":14.6364,"lng":121.00412,"region":"National Capital Region (NCR)","city":"Quezon City","brgy":"Sienna"},{"id":32045,"zip":1101,"lat":14.6369,"lng":121.05788,"region":"National Capital Region (NCR)","city":"Quezon City","brgy":"Sikatuna village"},{"id":32046,"zip":1102,"lat":14.6271,"lng":121.05859,"region":"National Capital Region (NCR)","city":"Quezon City","brgy":"Silangan"},{"id":32047,"zip":800,"lat":14.6399,"lng":121.01651,"region":"National Capital Region (NCR)","city":"Quezon City","brgy":"Social Security System"},{"id":32048,"zip":1109,"lat":14.61663,"lng":121.05501,"region":"National Capital Region (NCR)","city":"Quezon City","brgy":"Socorro"},{"id":32049,"zip":1103,"lat":14.63769,"lng":121.03494,"region":"National Capital Region (NCR)","city":"Quezon City","brgy":"South Triangle"},{"id":32050,"zip":1114,"lat":14.63444,"lng":120.99982,"region":"National Capital Region (NCR)","city":"Quezon City","brgy":"St. Peter"},{"id":32051,"zip":1109,"lat":14.6221,"lng":121.06397,"region":"National Capital Region (NCR)","city":"Quezon City","brgy":"Tagumpay"},{"id":32052,"zip":1110,"lat":14.67604,"lng":121.0437,"region":"National Capital Region (NCR)","city":"Quezon City","brgy":"Talampas"},{"id":32053,"zip":1104,"lat":14.6333,"lng":121.01201,"region":"National Capital Region (NCR)","city":"Quezon City","brgy":"Talayan"},{"id":32054,"zip":1116,"lat":14.68554,"lng":121.02634,"region":"National Capital Region (NCR)","city":"Quezon City","brgy":"Talipapa"},{"id":32055,"zip":1116,"lat":14.68192,"lng":121.04211,"region":"National Capital Region (NCR)","city":"Quezon City","brgy":"Tandang Sora"},{"id":32056,"zip":1113,"lat":14.62253,"lng":121.01487,"region":"National Capital Region (NCR)","city":"Quezon City","brgy":"Tatalon"},{"id":32057,"zip":1101,"lat":14.6437,"lng":121.06003,"region":"National Capital Region (NCR)","city":"Quezon City","brgy":"Teacher's village East"},{"id":32058,"zip":1101,"lat":14.64433,"lng":121.05573,"region":"National Capital Region (NCR)","city":"Quezon City","brgy":"Teacher's village West"},{"id":32059,"zip":1101,"lat":14.65266,"lng":121.06504,"region":"National Capital Region (NCR)","city":"Quezon City","brgy":"U.P. Campus"},{"id":32060,"zip":1101,"lat":14.63333,"lng":121.03333,"region":"National Capital Region (NCR)","city":"Quezon City","brgy":"U.P. village"},{"id":32061,"zip":1100,"lat":14.59576,"lng":121.06504,"region":"National Capital Region (NCR)","city":"Quezon City","brgy":"Ugong Norte"},{"id":32062,"zip":1110,"lat":14.59576,"lng":121.06504,"region":"National Capital Region (NCR)","city":"Quezon City","brgy":"Ugong Norte"},{"id":32063,"zip":1106,"lat":14.65882,"lng":121.00125,"region":"National Capital Region (NCR)","city":"Quezon City","brgy":"Unang Sigaw"},{"id":32064,"zip":1101,"lat":14.64058,"lng":121.04349,"region":"National Capital Region (NCR)","city":"Quezon City","brgy":"University of the Philippines Post Office"},{"id":32065,"zip":1101,"lat":14.65155,"lng":121.06228,"region":"National Capital Region (NCR)","city":"Quezon City","brgy":"University of the Philippines Village"},{"id":32066,"zip":840,"lat":14.63479,"lng":121.05208,"region":"National Capital Region (NCR)","city":"Quezon City","brgy":"V. Luna Hospital"},{"id":32067,"zip":1112,"lat":14.61086,"lng":121.03709,"region":"National Capital Region (NCR)","city":"Quezon City","brgy":"Valencia"},{"id":32068,"zip":1128,"lat":14.6567,"lng":121.04641,"region":"National Capital Region (NCR)","city":"Quezon City","brgy":"Vasra"},{"id":32069,"zip":870,"lat":14.67604,"lng":121.0437,"region":"National Capital Region (NCR)","city":"Quezon City","brgy":"Veterans Hospital"},{"id":32070,"zip":1105,"lat":14.6549,"lng":121.02348,"region":"National Capital Region (NCR)","city":"Quezon City","brgy":"Veterans village"},{"id":32071,"zip":1109,"lat":14.61619,"lng":121.06898,"region":"National Capital Region (NCR)","city":"Quezon City","brgy":"Villa Maria Clara"},{"id":32072,"zip":1120,"lat":14.43538,"lng":121.05015,"region":"National Capital Region (NCR)","city":"Quezon City","brgy":"Violago Homes"},{"id":32073,"zip":1102,"lat":14.63095,"lng":121.04999,"region":"National Capital Region (NCR)","city":"Quezon City","brgy":"West Kamias"},{"id":32074,"zip":1104,"lat":14.64329,"lng":121.03208,"region":"National Capital Region (NCR)","city":"Quezon City","brgy":"West Triangle"},{"id":32075,"zip":1110,"lat":14.6009,"lng":121.06493,"region":"National Capital Region (NCR)","city":"Quezon City","brgy":"White Plains"},{"id":32076,"zip":1630,"lat":14.59205,"lng":121.02308,"region":"National Capital Region (NCR)","city":"Taguig City","brgy":"Bagumbayan"},{"id":32077,"zip":1630,"lat":14.52478,"lng":121.06862,"region":"National Capital Region (NCR)","city":"Taguig City","brgy":"Bambang"},{"id":32078,"zip":1636,"lat":14.51762,"lng":121.05086,"region":"National Capital Region (NCR)","city":"Taguig City","brgy":"Bay Breeze Executive Village"},{"id":32079,"zip":1630,"lat":14.53552,"lng":121.0698,"region":"National Capital Region (NCR)","city":"Taguig City","brgy":"Calzada"},{"id":32080,"zip":1631,"lat":14.4892,"lng":121.06113,"region":"National Capital Region (NCR)","city":"Taguig City","brgy":"Central Bicutan"},{"id":32081,"zip":1630,"lat":14.51177,"lng":121.05768,"region":"National Capital Region (NCR)","city":"Taguig City","brgy":"Central Signal village (Signal village)"},{"id":32082,"zip":1630,"lat":14.5509,"lng":121.05358,"region":"National Capital Region (NCR)","city":"Taguig City","brgy":"Fort Bonifacio"},{"id":32083,"zip":1630,"lat":14.51219,"lng":121.07077,"region":"National Capital Region (NCR)","city":"Taguig City","brgy":"Hagonoy"},{"id":32084,"zip":1630,"lat":14.5366,"lng":121.0894,"region":"National Capital Region (NCR)","city":"Taguig City","brgy":"Ibayo-Tipas"},{"id":32085,"zip":1630,"lat":14.5212,"lng":121.06217,"region":"National Capital Region (NCR)","city":"Taguig City","brgy":"Katuparan"},{"id":32086,"zip":1638,"lat":14.54199,"lng":121.08097,"region":"National Capital Region (NCR)","city":"Taguig City","brgy":"Ligid"},{"id":32087,"zip":1638,"lat":14.54199,"lng":121.08097,"region":"National Capital Region (NCR)","city":"Taguig City","brgy":"Ligid-Tipas"},{"id":32088,"zip":1632,"lat":14.48911,"lng":121.06074,"region":"National Capital Region (NCR)","city":"Taguig City","brgy":"Lower Bicutan"},{"id":32089,"zip":1630,"lat":14.4977,"lng":121.05501,"region":"National Capital Region (NCR)","city":"Taguig City","brgy":"Maharlika village"},{"id":32090,"zip":1634,"lat":14.54646,"lng":121.04951,"region":"National Capital Region (NCR)","city":"Taguig City","brgy":"McKinley"},{"id":32091,"zip":1630,"lat":14.52722,"lng":121.11167,"region":"National Capital Region (NCR)","city":"Taguig City","brgy":"Napindan"},{"id":32092,"zip":1630,"lat":14.5027,"lng":121.06504,"region":"National Capital Region (NCR)","city":"Taguig City","brgy":"New Lower Bicutan"},{"id":32093,"zip":1634,"lat":14.52385,"lng":121.02615,"region":"National Capital Region (NCR)","city":"Taguig City","brgy":"Nichols"},{"id":32094,"zip":1630,"lat":14.47751,"lng":121.04644,"region":"National Capital Region (NCR)","city":"Taguig City","brgy":"North Daan Hari"},{"id":32095,"zip":1630,"lat":14.51537,"lng":121.05788,"region":"National Capital Region (NCR)","city":"Taguig City","brgy":"North Signal village"},{"id":32096,"zip":1630,"lat":14.5212,"lng":121.06217,"region":"National Capital Region (NCR)","city":"Taguig City","brgy":"Palingon"},{"id":32097,"zip":1630,"lat":14.5212,"lng":121.06217,"region":"National Capital Region (NCR)","city":"Taguig City","brgy":"Pinagsama"},{"id":32098,"zip":1630,"lat":14.59793,"lng":121.02671,"region":"National Capital Region (NCR)","city":"Taguig City","brgy":"San Miguel"},{"id":32099,"zip":1630,"lat":14.52002,"lng":121.08797,"region":"National Capital Region (NCR)","city":"Taguig City","brgy":"Santa Ana"},{"id":32100,"zip":1630,"lat":14.47751,"lng":121.04644,"region":"National Capital Region (NCR)","city":"Taguig City","brgy":"South Daan Hari"},{"id":32101,"zip":1630,"lat":14.50503,"lng":121.05788,"region":"National Capital Region (NCR)","city":"Taguig City","brgy":"South Signal village"},{"id":32102,"zip":1630,"lat":14.54125,"lng":121.08065,"region":"National Capital Region (NCR)","city":"Taguig City","brgy":"Tanyag (Bagong Tanyag)"},{"id":32103,"zip":1637,"lat":14.52805,"lng":121.07183,"region":"National Capital Region (NCR)","city":"Taguig City","brgy":"Tuktukan"},{"id":32104,"zip":1633,"lat":14.49295,"lng":121.05214,"region":"National Capital Region (NCR)","city":"Taguig City","brgy":"Upper Bicutan"},{"id":32105,"zip":1630,"lat":14.53263,"lng":121.06361,"region":"National Capital Region (NCR)","city":"Taguig City","brgy":"Ususan"},{"id":32106,"zip":1632,"lat":14.53263,"lng":121.06361,"region":"National Capital Region (NCR)","city":"Taguig City","brgy":"Ususan"},{"id":32107,"zip":1630,"lat":14.52019,"lng":121.07794,"region":"National Capital Region (NCR)","city":"Taguig City","brgy":"Wawa"},{"id":32108,"zip":1630,"lat":14.51654,"lng":121.05044,"region":"National Capital Region (NCR)","city":"Taguig City","brgy":"Western Bicutan"},{"id":32109,"zip":1444,"lat":14.69707,"lng":120.9525,"region":"National Capital Region (NCR)","city":"Valenzuela City","brgy":"Arkong Bato"},{"id":32110,"zip":1440,"lat":14.71265,"lng":121.00054,"region":"National Capital Region (NCR)","city":"Valenzuela City","brgy":"Bagbaguin"},{"id":32111,"zip":1445,"lat":14.71376,"lng":120.9403,"region":"National Capital Region (NCR)","city":"Valenzuela City","brgy":"Balangkas"},{"id":32112,"zip":1440,"lat":14.74566,"lng":120.99624,"region":"National Capital Region (NCR)","city":"Valenzuela City","brgy":"Bignay"},{"id":32113,"zip":1440,"lat":14.71522,"lng":120.94373,"region":"National Capital Region (NCR)","city":"Valenzuela City","brgy":"Bisig"},{"id":32114,"zip":1445,"lat":14.72738,"lng":120.94461,"region":"National Capital Region (NCR)","city":"Valenzuela City","brgy":"Coloong"},{"id":32115,"zip":1443,"lat":14.7052,"lng":120.96325,"region":"National Capital Region (NCR)","city":"Valenzuela City","brgy":"Dalandanan"},{"id":32116,"zip":1447,"lat":14.71342,"lng":120.96891,"region":"National Capital Region (NCR)","city":"Valenzuela City","brgy":"East Canumay"},{"id":32117,"zip":1442,"lat":14.6511,"lng":121.11423,"region":"National Capital Region (NCR)","city":"Valenzuela City","brgy":"Fortune Village"},{"id":32118,"zip":1442,"lat":14.6875,"lng":120.99944,"region":"National Capital Region (NCR)","city":"Valenzuela City","brgy":"General T. de Leon"},{"id":32119,"zip":1440,"lat":14.70355,"lng":120.9525,"region":"National Capital Region (NCR)","city":"Valenzuela City","brgy":"Isla"},{"id":32120,"zip":1441,"lat":14.68689,"lng":120.97329,"region":"National Capital Region (NCR)","city":"Valenzuela City","brgy":"Karuhatan"},{"id":32121,"zip":1447,"lat":14.73012,"lng":120.99624,"region":"National Capital Region (NCR)","city":"Valenzuela City","brgy":"Lawang Bato"},{"id":32122,"zip":1446,"lat":14.71863,"lng":120.97759,"region":"National Capital Region (NCR)","city":"Valenzuela City","brgy":"Lingunan"},{"id":32123,"zip":1444,"lat":14.7196,"lng":120.93604,"region":"National Capital Region (NCR)","city":"Valenzuela City","brgy":"Mabolo"},{"id":32124,"zip":1444,"lat":14.71942,"lng":120.95465,"region":"National Capital Region (NCR)","city":"Valenzuela City","brgy":"Malanday"},{"id":32125,"zip":1440,"lat":14.68966,"lng":120.96325,"region":"National Capital Region (NCR)","city":"Valenzuela City","brgy":"Malinta"},{"id":32126,"zip":1448,"lat":14.70187,"lng":121.0034,"region":"National Capital Region (NCR)","city":"Valenzuela City","brgy":"Mapulang Lupa"},{"id":32127,"zip":1440,"lat":14.67484,"lng":120.98476,"region":"National Capital Region (NCR)","city":"Valenzuela City","brgy":"Marulas"},{"id":32128,"zip":1440,"lat":14.70158,"lng":120.97903,"region":"National Capital Region (NCR)","city":"Valenzuela City","brgy":"Maysan"},{"id":32129,"zip":1440,"lat":14.70213,"lng":120.94891,"region":"National Capital Region (NCR)","city":"Valenzuela City","brgy":"Palasan"},{"id":32130,"zip":1440,"lat":14.69579,"lng":120.99193,"region":"National Capital Region (NCR)","city":"Valenzuela City","brgy":"Parada"},{"id":32131,"zip":1440,"lat":14.71,"lng":120.95,"region":"National Capital Region (NCR)","city":"Valenzuela City","brgy":"Pariancillo Villa"},{"id":32132,"zip":1442,"lat":14.70573,"lng":120.9948,"region":"National Capital Region (NCR)","city":"Valenzuela City","brgy":"Paso de Blas"},{"id":32133,"zip":1444,"lat":14.70913,"lng":120.95196,"region":"National Capital Region (NCR)","city":"Valenzuela City","brgy":"Pasolo"},{"id":32134,"zip":1440,"lat":14.73697,"lng":120.95644,"region":"National Capital Region (NCR)","city":"Valenzuela City","brgy":"Poblacion"},{"id":32135,"zip":1444,"lat":14.73154,"lng":120.92954,"region":"National Capital Region (NCR)","city":"Valenzuela City","brgy":"Pulo"},{"id":32136,"zip":1447,"lat":14.73549,"lng":120.9862,"region":"National Capital Region (NCR)","city":"Valenzuela City","brgy":"Punturin"},{"id":32137,"zip":1444,"lat":14.69752,"lng":120.95823,"region":"National Capital Region (NCR)","city":"Valenzuela City","brgy":"Rincon"},{"id":32138,"zip":1440,"lat":14.72455,"lng":120.93743,"region":"National Capital Region (NCR)","city":"Valenzuela City","brgy":"Tagalag"},{"id":32139,"zip":1440,"lat":14.69651,"lng":121.01344,"region":"National Capital Region (NCR)","city":"Valenzuela City","brgy":"Ugong"},{"id":32140,"zip":1440,"lat":14.71514,"lng":120.96612,"region":"National Capital Region (NCR)","city":"Valenzuela City","brgy":"Viente Reales"},{"id":32141,"zip":1440,"lat":14.73154,"lng":120.92954,"region":"National Capital Region (NCR)","city":"Valenzuela City","brgy":"Wawang Pulo"},{"id":32142,"zip":1443,"lat":14.7111,"lng":120.98476,"region":"National Capital Region (NCR)","city":"Valenzuela City","brgy":"West Canumay"}]